country,business_name,is_tax_registered,tax_number,address_1,address_2,city,postal_code,email,mobile
China,Aivee,false,15,9132 Veith Park,Apt 1181,Shuanghe,,mmcinally0@discuz.net,4207716999
Philippines,Realcube,false,15,7773 Ridgeway Drive,Suite 43,Alupay,3201,jbabber1@globo.com,8094833331
Philippines,Skyndu,false,15,635 Northridge Street,PO Box 7222,Tumbagaan,1114,mmaccosty2@google.co.jp,8464041311
Poland,Bubblemix,true,15,2 Mandrake Point,Room 653,Osiek,87-340,ppretious3@google.ca,4705022377
Philippines,Realpoint,true,15,6 Dorton Place,Apt 1490,San Isidro,8421,capril4@engadget.com,6754469064
France,Leexo,false,15,75520 Fordem Center,Apt 1209,Claye-Souilly,77414 CEDEX,wgewer5@washington.edu,9025593417
Russia,BlogXS,false,15,630 Blue Bill Park Point,19th Floor,Tomsk,634069,dfallowes6@blinklist.com,8837627818
Philippines,Thoughtblab,false,15,94 Harbort Junction,PO Box 56318,Calizo,5610,dprobert7@sourceforge.net,3794460300
Russia,Talane,false,15,6 Welch Pass,Room 97,Kanash,429337,gbarnfield8@ed.gov,1838030497
United Kingdom,Wordify,false,15,4452 Loeprich Trail,Apt 451,Upton,DN21,csindle9@webeden.co.uk,6942788564
China,Skyndu,false,15,3 Porter Point,PO Box 84605,Shuikou,,bautriea@washingtonpost.com,4311418026
Tunisia,Quatz,true,15,0943 Warner Center,Apt 1038,Qaşr Hallāl,,frosewarneb@intel.com,8325306544
Poland,Yodo,true,15,684 Johnson Terrace,PO Box 37871,Mnich,43-523,jkelceyc@ameblo.jp,5733625602
Sweden,LiveZ,false,15,9 Debra Hill,5th Floor,Örnsköldsvik,891 25,cjaslemd@sina.com.cn,5254655838
Indonesia,Shufflebeat,true,15,67390 Golden Leaf Plaza,PO Box 16183,Sungayang,,bbuckhurste@toplist.cz,4265073823
China,Photolist,false,15,860 Hudson Junction,Room 498,Zhongmen,,aquimbyf@feedburner.com,6868852872
China,Thoughtsphere,true,15,407 Sunfield Park,Room 621,Tonglin,,kjointg@mapy.cz,4922701405
Yemen,Skidoo,false,15,73465 Westridge Point,Apt 1552,Şuwayr,,abeddoh@myspace.com,6849157603
China,Skinte,true,15,07525 Onsgard Center,Suite 42,Huogezhuang,,alinniti@elegantthemes.com,2153281064
Greece,Digitube,false,15,008 6th Road,Apt 621,Mílos,,bmeatyardj@desdev.cn,1595762309
Azerbaijan,Fliptune,true,15,15953 West Court,Apt 730,Salyan,,aroddickk@netscape.com,2185426929
Albania,Realblab,false,15,502 Sloan Circle,PO Box 59999,Pishaj,,bdestouchel@wiley.com,7318934485
Ukraine,Photobean,false,15,4 Crowley Street,Room 359,Zdolbuniv,,mphalipm@amazon.co.uk,8304137207
China,Topicstorm,false,15,1 Esch Drive,20th Floor,Jijiazhuang,,comandn@ucla.edu,9349908158
Azerbaijan,Oloo,true,15,415 Park Meadow Court,Apt 11,Quba,,jgantzmano@cisco.com,5176471882
Indonesia,Buzzdog,false,15,1914 Morningstar Plaza,17th Floor,Bayan,,acapehornp@japanpost.jp,7553829350
Brazil,Fivechat,true,15,16873 Huxley Pass,PO Box 37476,Taboão da Serra,06750-000,dlancettq@msn.com,4122073362
Philippines,Jaxworks,false,15,3884 Doe Crossing Drive,Room 1803,Zamboanguita,1812,vdewfallr@nytimes.com,2055809291
China,Skyba,false,15,83347 Haas Circle,Apt 1630,Shuangta,,tbickardikes@tuttocitta.it,5418985837
Indonesia,Wordify,false,15,467 Continental Way,Apt 1059,Ciakar,,nspellmant@ucsd.edu,7596681625
Norway,Mycat,true,15,6 Onsgard Point,14th Floor,Oslo,0403,psoughtonu@usgs.gov,6076880736
Nigeria,Miboo,false,15,45210 Utah Road,PO Box 92358,Sauri,,mphilippv@artisteer.com,9252955744
Indonesia,Brightdog,true,15,7688 Nancy Lane,PO Box 54235,Mojokerto,,mdollarw@devhub.com,9067232438
Malaysia,Lajo,true,15,3 Lighthouse Bay Road,Apt 325,Kota Bharu,15572,hmorrissx@fastcompany.com,5089259341
Peru,Edgeify,false,15,81463 Hoepker Point,PO Box 56512,Huanoquite,,gdobsonsy@census.gov,9963475169
China,Tagcat,false,15,5322 Pankratz Lane,Apt 694,Hengxianhe,,dfilippazzoz@wix.com,1515144614
Indonesia,Quinu,false,15,2036 Waywood Plaza,Suite 10,Ciburial,,tpadfield10@rediff.com,9562545583
China,Mynte,true,15,6 Russell Junction,PO Box 43984,Xiacang,,rferentz11@csmonitor.com,8691462955
Philippines,Edgepulse,false,15,515 Manley Crossing,Apt 173,Calatrava,6126,tgadson12@admin.ch,6315778157
Bosnia and Herzegovina,Blogtag,false,15,35 Granby Lane,Room 820,Velika Kladuša,,sdunnet13@aol.com,2927819573
Poland,Brainbox,false,15,4 Haas Circle,PO Box 4416,Biała Piska,12-230,gwitherby14@nymag.com,7836774998
China,DabZ,true,15,95 Comanche Junction,3rd Floor,Tangzhai,,dbliss15@topsy.com,6228416475
France,Jaxworks,false,15,03 Maple Wood Crossing,20th Floor,Coulommiers,77529 CEDEX,ccozby16@fotki.com,6743033936
Russia,Edgetag,false,15,35 Daystar Hill,Room 144,Kraskino,692715,jdeme17@cisco.com,5763814894
Cambodia,Demivee,false,15,43684 Glendale Lane,Suite 21,Prey Veng,,mboothjarvis18@bloomberg.com,1403694174
Kyrgyzstan,Eazzy,true,15,84 Hanover Center,Apt 414,Ala-Buka,,ainfante19@un.org,5009309336
Afghanistan,Zoomcast,false,15,66952 Sunnyside Junction,Apt 97,Manogay,,mlyons1a@seesaa.net,5679066227
Argentina,Janyx,true,15,5035 Mitchell Parkway,PO Box 23319,Formosa,3600,btorbeck1b@over-blog.com,7595801943
Russia,Wikido,true,15,89179 Dixon Parkway,Apt 322,Sudzha,307831,cbloxland1c@buzzfeed.com,3531702871
Colombia,Myworks,true,15,84 Victoria Plaza,PO Box 22439,Pupiales,524528,cambridge1d@biblegateway.com,4546494539
Philippines,Yamia,true,15,383 Straubel Lane,Suite 29,Laoag,4207,marnaut1e@gizmodo.com,1511969957
Mali,Livefish,true,15,3206 Fallview Way,Apt 178,Banamba,,evinau1f@canalblog.com,1503141929
Croatia,Browsetype,true,15,2969 Barnett Trail,Room 1711,Lepoglava,42250,sdowtry1g@dailymail.co.uk,3711343832
China,Katz,false,15,41 Nova Street,Apt 1909,Zhongjiapu,,oizkoveski1h@google.cn,6374520278
China,Flashpoint,false,15,6 Anthes Terrace,7th Floor,Shuozhou,,ahowat1i@wisc.edu,3034640100
Philippines,Kazio,true,15,93794 Jenna Lane,PO Box 43164,Luksuhin,4221,cmuzzlewhite1j@simplemachines.org,5369783162
China,Topiclounge,true,15,35082 Loomis Crossing,Suite 93,Hutou,,gcamilleri1k@spotify.com,4053432808
China,Shufflebeat,true,15,7693 Bowman Center,Apt 826,Zhili,,ebraben1l@hatena.ne.jp,7579285934
China,Zooxo,true,15,66716 Mockingbird Center,Room 954,Nanwai,,adeboick1m@youtu.be,8338912136
Netherlands,Trudoo,false,15,4 Sommers Plaza,Suite 44,Bergen op Zoom,4619,bwheldon1n@mysql.com,7472319352
Indonesia,Dynabox,false,15,95373 Lunder Circle,Room 4,Pakapasan Ilir,,rrospars1o@bigcartel.com,1752258681
Japan,Innotype,true,15,34 Acker Parkway,Apt 701,Matsubara,999-0606,gdeeson1p@furl.net,1448445925
China,Youfeed,true,15,30 Oak Valley Parkway,Suite 41,Yeyik,,gdemorena1q@nba.com,9145591276
France,Linkbridge,true,15,026 Badeau Lane,Room 867,Tours,37205 CEDEX 3,mfilyaev1r@zdnet.com,1882913388
Sierra Leone,Mydo,false,15,2 Monument Plaza,Apt 153,Blama,,dgreg1s@tripod.com,5988017781
Poland,Geba,false,15,04 Spaight Plaza,Suite 85,Sypniewo,06-216,dnewlove1t@sohu.com,3405781101
Indonesia,Riffpath,true,15,0 Erie Circle,Room 1728,Merdeka,,ajonke1u@slashdot.org,1031209252
Indonesia,Browsezoom,false,15,1 Red Cloud Hill,Room 1755,Krajan Demit,,hcastelletto1v@harvard.edu,2845006143
Mongolia,Kazio,false,15,60766 Bowman Hill,Suite 61,Khovd,,tstitfall1w@patch.com,9678321222
Russia,Meevee,true,15,182 Scoville Circle,Suite 26,Turtas,626190,gnasi1x@multiply.com,2505424457
Peru,Vidoo,true,15,0 Dunning Center,Room 468,Ocoruro,,dullock1y@prnewswire.com,1639386348
Poland,Gigabox,true,15,8888 Mosinee Alley,PO Box 57456,Rogoźnik,42-625,bdibben1z@webeden.co.uk,8642513150
France,Agivu,true,15,2385 Columbus Parkway,Room 309,Nice,06306 CEDEX 4,mbeniesh20@last.fm,3021683699
Ukraine,Layo,false,15,26 Pennsylvania Trail,Suite 42,Krolevets’,,cduffett21@exblog.jp,1848525629
Colombia,Linktype,true,15,3605 Scofield Drive,Suite 57,Sonsón,054829,rdenisyuk22@deviantart.com,7493729344
Kenya,Voonix,true,15,5 Portage Point,12th Floor,Nyeri,,beddington23@yelp.com,3223027876
Russia,Quimm,true,15,770 Clarendon Hill,PO Box 78171,Budënnovsk,356825,rgaley24@jigsy.com,8033043073
Russia,Trilith,false,15,190 Debra Alley,PO Box 7279,Petrovskiy,399445,tbrilon25@wikipedia.org,5836803013
Ecuador,Jabbersphere,true,15,96809 Havey Lane,Suite 75,Velasco Ibarra,,steanby26@irs.gov,4565321360
Indonesia,Thoughtbridge,true,15,79 Iowa Way,PO Box 72354,Munjungan,,hnunan27@japanpost.jp,8669982624
Peru,Livefish,false,15,4 Sutteridge Circle,Room 963,Santo Tomas,,fmaccaffrey28@hibu.com,5187364110
Norway,Rhycero,true,15,0 Quincy Circle,Apt 1308,Trondheim,7026,abonn29@gnu.org,3417506806
Myanmar,Photobean,false,15,1185 Main Point,Suite 88,Yenangyaung,,mjewett2a@who.int,4692347788
Czech Republic,Wordware,false,15,152 Lillian Trail,Suite 92,Josefův Důl,468 44,aurch2b@t.co,4342249502
Honduras,Edgeblab,true,15,157 Orin Parkway,Room 715,La Esperanza,,cbarreau2c@canalblog.com,6699243225
Brazil,Tagtune,true,15,51718 Wayridge Avenue,Room 295,Paulista,53400-000,adanelutti2d@comsenz.com,4396208931
China,Roomm,true,15,45 Annamark Way,Suite 7,Lianyuan,,eaggio2e@google.es,1099714198
Madagascar,Eadel,false,15,54 Melby Avenue,PO Box 83952,Ampasimanolotra,,mfeehely2f@histats.com,7523709674
Russia,Zoomdog,true,15,5 Michigan Road,Room 1759,Troitskoye,140168,omushet2g@go.com,4227904477
China,Jetpulse,false,15,195 Morningstar Terrace,Apt 46,Dandai,,dbultitude2h@mysql.com,8839745760
Portugal,Meevee,true,15,0 Dryden Center,Room 1145,Alcanena,2380-015,cwilliscroft2i@dion.ne.jp,2685994327
Albania,Photobug,false,15,8357 Lyons Park,Room 1075,Ujmisht,,rseddon2j@hubpages.com,6012837385
Thailand,Skippad,true,15,3573 Acker Way,Apt 933,Si Wilai,43210,lwardhaw2k@seattletimes.com,5718832004
Russia,Flipstorm,false,15,659 Alpine Pass,3rd Floor,Radovitskiy,140753,bguyton2l@yellowbook.com,8487462192
Dominican Republic,Topiczoom,false,15,1153 Badeau Plaza,18th Floor,La Agustina,10516,ehark2m@livejournal.com,3772236896
Nigeria,Skynoodle,false,15,80509 Crescent Oaks Junction,Suite 47,Ugep,,groblou2n@canalblog.com,4212152981
Brazil,Ailane,true,15,95235 Glacier Hill Court,PO Box 37767,Quatro Barras,83420-000,tkarlolak2o@huffingtonpost.com,3538138033
China,Linklinks,true,15,3 Division Hill,15th Floor,Yongchang,,sscaplehorn2p@bandcamp.com,2873812547
Armenia,Riffpath,true,15,0 Golden Leaf Court,Apt 18,Noyakert,,iludford2q@aboutads.info,5238468329
Indonesia,Muxo,false,15,24 Eggendart Plaza,Room 1468,Wairinding,,sfarden2r@de.vu,9065906383
Canada,Meevee,true,15,59683 Ryan Parkway,12th Floor,Roblin,R7N,ehenrionot2s@amazon.co.uk,5819651073
Czech Republic,Devbug,true,15,0735 Duke Place,Suite 6,Přimda,348 06,kokynsillaghe2t@xrea.com,2341538341
Nigeria,JumpXS,false,15,51 Reinke Park,PO Box 98569,Ilare,,bmceniry2u@discovery.com,2661589707
Mexico,Brainlounge,false,15,4851 Hazelcrest Avenue,Apt 279,San Martin,56199,rwent2v@addtoany.com,2914838414
Thailand,Shufflebeat,true,15,9 Hovde Circle,17th Floor,Nikhom Kham Soi,49130,adowty2w@about.me,8556987696
Panama,Jatri,false,15,09027 8th Circle,Apt 77,Alcaldedíaz,,bbeardsley2x@unesco.org,3097642617
Montenegro,Gabcube,true,15,2265 Artisan Center,PO Box 69985,Andrijevica,,rbunt2y@hibu.com,2187393906
United States,Flashdog,false,15,4551 Hollow Ridge Junction,Suite 91,Saginaw,48604,roshavlan2z@accuweather.com,9891215630
Russia,Twitterbridge,true,15,915 Esker Junction,Room 1194,Sovetskoye,659540,cpurbrick30@utexas.edu,7087172561
Finland,Kazio,true,15,909 Annamark Center,PO Box 19969,Ylöjärvi,33480,rhowsden31@prweb.com,9043258383
China,Linktype,true,15,1752 Bellgrove Parkway,Apt 1381,Xinfeng,,sshatliff32@de.vu,9925145143
France,Gigaclub,true,15,0 Wayridge Drive,Suite 74,Le Mans,72004 CEDEX 1,pdanilishin33@people.com.cn,4064736848
China,Realcube,true,15,53 Coleman Crossing,19th Floor,Huze,,oleadbitter34@techcrunch.com,7583849053
Sudan,Yamia,false,15,80135 Village Junction,Apt 1837,Al Lagowa,,hchirm35@patch.com,8766815103
France,Eabox,true,15,762 Marcy Junction,PO Box 47655,Morez,39409 CEDEX,adurak36@time.com,2187665812
Ukraine,Meeveo,false,15,91 New Castle Place,Room 755,Podbuzh,,dcrouse37@phoca.cz,2604660659
Philippines,Miboo,false,15,95697 Cody Place,Suite 6,Barra,9016,bfitzharris38@quantcast.com,2709321876
Dominican Republic,Shufflester,true,15,191 Monument Lane,Apt 829,Jamao al Norte,10131,ncolwill39@amazon.co.jp,9047464612
Sweden,Trunyx,false,15,29429 Farwell Point,19th Floor,Solna,169 65,trubertis3a@histats.com,5884677450
China,Realcube,true,15,88975 Kingsford Crossing,Suite 81,Long’an Chengxiangzhen,,ilockey3b@diigo.com,8422003108
China,Flashspan,false,15,78 Katie Place,PO Box 12883,Maji,,fbuche3c@biblegateway.com,4175199639
Philippines,Wordware,true,15,24 Parkside Center,Room 1143,Anticala,6010,nbernholt3d@wired.com,2016431248
Spain,Dabshots,false,15,51 Shelley Junction,Apt 525,Ourense,32005,tstobbart3e@a8.net,2844492830
Honduras,Cogilith,false,15,2 Redwing Street,Room 912,Sabanagrande,,lmeddick3f@purevolume.com,8081731721
Colombia,Skimia,true,15,475 Tony Alley,Room 1177,Pensilvania,173069,glomasny3g@nature.com,8119728608
France,Devbug,true,15,62076 Columbus Place,Suite 55,Royan,17209 CEDEX,hsketch3h@altervista.org,5715333512
Ukraine,Tagchat,false,15,93878 Surrey Plaza,Room 56,Bratslav,,streacy3i@jimdo.com,3262156920
Poland,Skinte,true,15,144 Grasskamp Center,8th Floor,Sieroszewice,63-405,ckempson3j@hatena.ne.jp,7373523314
Portugal,Aivee,true,15,1534 Ramsey Trail,Suite 32,Guimarei,4825-171,dmcveagh3k@gmpg.org,4327556605
Peru,Feednation,true,15,39 Sutherland Drive,Room 1504,Lluchubamba,,cbaldacchino3l@myspace.com,3698673798
Poland,Gabspot,false,15,8 Myrtle Trail,Room 1546,Ceranów,08-322,abrasner3m@cnn.com,2074893897
Argentina,Voolia,false,15,98 Merry Center,Room 1108,Puerto Iguazú,3370,hhoble3n@storify.com,7404997369
Croatia,Riffpath,false,15,85028 Southridge Alley,Apt 1362,Makarska,21300,sdunnan3o@cmu.edu,4914289409
France,Brainsphere,true,15,02 Superior Terrace,Suite 47,Toulouse,31201 CEDEX 2,lchasmer3p@bbc.co.uk,3312925593
Colombia,Tekfly,false,15,982 Goodland Way,PO Box 98385,Canalete,235048,xtroman3q@wix.com,8131757211
Russia,Agivu,false,15,157 Calypso Plaza,PO Box 77104,Velizh,216290,abarrell3r@yellowpages.com,6916168584
Indonesia,Centizu,false,15,8521 Homewood Hill,Room 128,Cikabuyutan Barat,,wpesic3s@springer.com,1908980217
China,Zoonoodle,false,15,73 Southridge Drive,PO Box 36064,Menlou’ao,,ascaysbrook3t@shareasale.com,3678912099
Portugal,Babbleopia,true,15,9610 Briar Crest Alley,20th Floor,Carregal,3800-854,radamov3u@umn.edu,4236593090
Portugal,Tagopia,true,15,680 Mariners Cove Parkway,Apt 1432,Rio Covo ( Santa Eulália ),4755-484,mspring3v@wikipedia.org,9278984624
Colombia,Eire,false,15,389 Bunker Hill Alley,20th Floor,Cali,760050,rdowson3w@newyorker.com,2787407451
China,Dynava,false,15,32994 Village Parkway,Room 877,Hongkou,,munthank3x@github.com,6356569564
Ukraine,Topiczoom,false,15,7 Continental Plaza,9th Floor,Novhorodka,,splowman3y@tripod.com,6081061491
France,Kazio,true,15,25 Little Fleur Drive,Apt 253,Hagondange,57304 CEDEX,dbazire3z@tamu.edu,9668223944
Indonesia,Dabjam,false,15,15 Prairie Rose Street,Apt 1220,Cihurip Satu,,sgalfour40@free.fr,7277674435
Sweden,Thoughtmix,false,15,6588 Surrey Way,Suite 34,Värnamo,331 54,anickols41@yahoo.co.jp,3435209415
China,Aimbu,true,15,84 Crescent Oaks Plaza,Room 1091,Wuqiao,,vmulholland42@sitemeter.com,3871042440
Malta,Youbridge,true,15,7 Mariners Cove Park,Suite 62,Imġarr,ZBG,djedrys43@netvibes.com,8712276803
Portugal,Ainyx,true,15,5 Calypso Center,PO Box 39207,Vilarinho da Castanheira,5140-279,tgamett44@de.vu,9556841350
Nicaragua,Yotz,false,15,56850 Northland Center,17th Floor,Catarina,,jogbourne45@cyberchimps.com,2851374147
Burkina Faso,Topdrive,true,15,570 Prentice Junction,PO Box 20536,Sindou,,dsiggee46@wikipedia.org,6958268578
Belarus,Zoonder,false,15,95577 Clove Terrace,Suite 48,Lyntupy,,gbirch47@yahoo.com,9992825919
Greece,Skalith,true,15,4151 Glendale Avenue,Apt 533,Mégara,,sfigiovanni48@over-blog.com,7906379221
Cameroon,Tanoodle,true,15,59 Old Gate Alley,PO Box 19729,Tiko,,twisdish49@jugem.jp,4822772433
Vietnam,Pixope,false,15,061 Talmadge Court,Room 1035,Kỳ Anh,,dtellenbrok4a@goo.ne.jp,9418436446
China,Fatz,true,15,97 Manufacturers Center,Suite 55,Jingping,,htejada4b@utexas.edu,4549052171
China,Flashset,true,15,77194 Scoville Parkway,PO Box 32367,Chashan,,agraeser4c@gravatar.com,6352787277
Ukraine,Jazzy,true,15,64346 Forest Circle,Room 522,Blahodatne,,aquantrell4d@topsy.com,2003542278
China,Twimbo,true,15,08 Evergreen Road,Suite 75,Tumen,,rfordy4e@163.com,4261912202
China,Realfire,false,15,67 Lyons Street,Room 729,Barkol,,ameates4f@hexun.com,6209752943
Papua New Guinea,Photobug,true,15,702 Clove Terrace,Room 380,Aitape,,athomazet4g@wsj.com,3958365391
Sweden,Viva,true,15,46400 Canary Avenue,Suite 54,Mariestad,542 87,vlutwidge4h@studiopress.com,9295271224
Brazil,Agivu,false,15,915 Fulton Pass,Suite 31,Vitória de Santo Antão,55600-000,abaskeyfied4i@wikispaces.com,7354260842
Portugal,Browsezoom,true,15,81 Fieldstone Terrace,Suite 51,Insua,4930-250,jfuxman4j@about.com,3829946084
China,Agimba,false,15,82 Evergreen Park,9th Floor,Henglin,,bexcell4k@thetimes.co.uk,5051861676
Poland,Roomm,true,15,8 Graceland Parkway,Room 1538,Belsk Duży,05-622,tanselm4l@pagesperso-orange.fr,2945004091
France,Jetpulse,true,15,7 Fairview Street,Room 672,Toulouse,31931 CEDEX 9,ckohring4m@geocities.com,2726517208
Indonesia,Trudoo,false,15,9 Elgar Park,Suite 83,Tanjungsari Barat,,vrishbrook4n@thetimes.co.uk,5065970316
Indonesia,Gevee,false,15,0 Scott Trail,Apt 1941,Anjani Barat,,egrindley4o@hubpages.com,3615295713
Portugal,Gabspot,false,15,021 Merchant Alley,3rd Floor,Moreira de Geraz do Lima,4905-266,ocleeton4p@mozilla.com,6739206926
China,Ainyx,true,15,00983 Loftsgordon Junction,PO Box 43608,Yujia’ao,,stettersell4q@mozilla.org,8004168730
China,Feedfish,false,15,1 Bartillon Way,19th Floor,Tianchi,,codda4r@etsy.com,1566952337
Canada,Kwilith,true,15,160 Sugar Circle,3rd Floor,Cowansville,J2K,apavie4s@reverbnation.com,6793128360
Philippines,Chatterpoint,true,15,2043 Kensington Plaza,11th Floor,Abilay,5020,jjore4t@livejournal.com,4173308119
Colombia,Twitterworks,true,15,785 Harper Drive,PO Box 40878,Chivor,153007,kloxston4u@house.gov,6499637923
United States,Katz,false,15,1 Vidon Hill,Apt 29,Birmingham,35263,nault4v@elegantthemes.com,2053885533
Cameroon,Ainyx,true,15,32178 Northview Plaza,PO Box 2196,Meïganga,,hsugg4w@constantcontact.com,6705600417
China,Pixope,true,15,078 Helena Lane,Suite 41,Chengfeng,,iswatland4x@sciencedirect.com,9077521073
Netherlands,Dynazzy,false,15,720 Forster Place,Suite 4,Ridderkerk,2989,jbeagin4y@yelp.com,7747426305
Cameroon,Chatterpoint,false,15,56275 Merchant Point,Room 463,Bekondo,,bcastelain4z@netlog.com,7608207342
Sweden,Voomm,true,15,9775 Donald Center,10th Floor,Bromma,168 32,ccasado50@vkontakte.ru,8212152018
Indonesia,Agivu,true,15,80 Sunbrook Crossing,12th Floor,Terara,,afoxcroft51@theatlantic.com,4572255269
Indonesia,Zoomdog,true,15,08784 Nova Drive,3rd Floor,Kalibuntu,,cspirit52@parallels.com,6347760075
Bulgaria,Youopia,false,15,993 Cody Park,Suite 27,Sapareva Banya,2645,ktowriss53@typepad.com,2883286048
China,Tagfeed,true,15,498 Russell Crossing,20th Floor,Siqu,,jcolqueran54@taobao.com,8486454194
Indonesia,Realbuzz,true,15,462 Gale Alley,Apt 918,Dalam,,agallatly55@bigcartel.com,7876826377
Greece,Centimia,false,15,2005 Steensland Alley,Suite 36,Kónitsa,,awem56@dailymotion.com,2204343915
China,Nlounge,false,15,1357 Superior Point,PO Box 79928,Beilun,,jweakley57@princeton.edu,8548836137
France,Riffpath,false,15,6501 Lakeland Way,1st Floor,Lescar,64234 CEDEX,arubartelli58@g.co,4041489155
France,Vipe,false,15,9348 Fairview Plaza,1st Floor,Vénissieux,69639 CEDEX,lrittelmeyer59@bbc.co.uk,9157347113
China,Plambee,true,15,3 Norway Maple Crossing,Apt 1146,Weizheng,,bdrife5a@upenn.edu,7857406997
China,Youbridge,false,15,86 Summer Ridge Plaza,Room 104,Badu,,bswettenham5b@hhs.gov,9348730484
United States,Blognation,false,15,8932 Shoshone Lane,Room 296,El Paso,79999,dbryett5c@state.gov,9152214534
Colombia,Yotz,false,15,16343 2nd Alley,PO Box 32813,Maní,854019,egive5d@wikispaces.com,5227356534
China,Jaxspan,true,15,6952 High Crossing Street,5th Floor,Laojunpo,,fandrassy5e@deviantart.com,3287001487
Poland,Bubblemix,true,15,9 Waxwing Hill,Room 1622,Mońki,19-101,cbickmore5f@geocities.com,1624734945
France,Jazzy,true,15,15 Eliot Park,Apt 1960,Bordeaux,33026 CEDEX,rstolle5g@geocities.jp,5666524609
Senegal,Talane,true,15,536 Moose Point,Room 1389,Goléré,,sbanker5h@usnews.com,3613250994
Russia,Meetz,true,15,91379 Glacier Hill Place,PO Box 60362,Omutninsk,612744,ditzkovich5i@auda.org.au,2138551175
Indonesia,Latz,true,15,6 Oneill Lane,Suite 1,Gunungkendeng,,obengtsen5j@discovery.com,2657627740
Argentina,Kayveo,true,15,19 Kedzie Hill,Suite 92,Puerta de Corral Quemado,4751,esamworth5k@un.org,2227423982
Moldova,Camimbo,true,15,81 Gulseth Trail,Apt 1143,Nisporeni,MD-6401,ubaptista5l@google.com,2383533397
Czech Republic,Babbleopia,false,15,7525 Montana Circle,13th Floor,Ústí nad Orlicí,562 06,bjozaitis5m@sfgate.com,4923488227
Yemen,Cogidoo,true,15,721 Hooker Park,Suite 21,Ḩabābah,,vsealy5n@deviantart.com,3982019260
China,Rhyloo,true,15,43 Veith Place,Apt 1608,Laojiangjunjie,,dupston5o@phpbb.com,4374797484
Sweden,Topiclounge,true,15,9418 Reinke Court,Suite 65,Timrå,861 83,agobell5p@mac.com,1232369692
Colombia,Lazzy,false,15,8 Dahle Parkway,Apt 1458,Barbosa,684517,hloughnan5q@tinyurl.com,3069452106
China,Omba,false,15,1 Ludington Junction,11th Floor,Wuqu,,bcolls5r@yahoo.co.jp,3614179030
Indonesia,Jabberstorm,false,15,863 Mifflin Hill,12th Floor,Rimpakgede,,ksmalecombe5s@bbb.org,8898650863
Slovenia,Plambee,true,15,4242 Golf Point,8th Floor,Bakovci,9241,gturfrey5t@wiley.com,9301276618
French Polynesia,Jaxspan,true,15,0805 Montana Way,Suite 3,Afaahiti,,trye5u@mayoclinic.com,8837320106
Brazil,Zoonder,true,15,17 Iowa Junction,PO Box 45416,Naviraí,79950-000,gparlet5v@gnu.org,1106061771
Comoros,Meezzy,false,15,1675 Westend Avenue,PO Box 66923,Koni-Djodjo,,iomannion5w@creativecommons.org,1713804447
United States,Tazzy,true,15,73554 Bunker Hill Road,9th Floor,Minneapolis,55458,aalabone5x@ca.gov,6125781364
Indonesia,Flipstorm,true,15,2529 Myrtle Hill,Apt 1285,Ponjen,,erosenstein5y@cnn.com,3537603677
China,Wordify,true,15,76 Corben Avenue,Apt 553,Xumai,,pivanuschka5z@comcast.net,7241956607
Argentina,Ozu,false,15,945 Ridgeway Circle,9th Floor,Florentino Ameghino,9113,cgladdolph60@scribd.com,9366668503
China,Blogspan,true,15,00940 Russell Street,Apt 32,Changmao,,jluty61@sphinn.com,5092175500
Portugal,Pixoboo,false,15,99 Judy Way,PO Box 69553,Vilela,4580-634,cbeausang62@xrea.com,2609080267
Russia,Buzzster,true,15,139 Harbort Road,18th Floor,Devitsa,397815,smorgan63@nytimes.com,4328221869
Indonesia,Feedfish,false,15,6205 Grayhawk Road,Apt 1730,Bitobe,,hdable64@issuu.com,5975487718
Portugal,Ailane,false,15,48156 Manley Drive,Room 532,Soutelo,4740-497,omuino65@loc.gov,3575156960
Japan,Flashspan,true,15,743 Almo Trail,Apt 1735,Ijūin,899-3221,mdorling66@shop-pro.jp,3273835642
Bolivia,Agivu,false,15,71557 Sauthoff Place,Room 814,Las Carreras,,rharse67@123-reg.co.uk,9703008545
China,Realcube,true,15,8 Tennyson Parkway,Apt 1044,Sanjiazi,,kcanfer68@boston.com,2834342916
China,Realmix,false,15,2 Merchant Court,PO Box 18287,Hepu,,sdelasalle69@nature.com,9786393709
China,Tagfeed,false,15,1 Sommers Point,Apt 1189,Zhong’an,,odouce6a@blogs.com,5362382271
Croatia,Pixonyx,true,15,4 Thompson Hill,Room 246,Marija Bistrica,49246,aclowley6b@geocities.jp,9572021714
Argentina,Digitube,false,15,03 Columbus Street,1st Floor,Venado Tuerto,2600,jbenger6c@sogou.com,8213172095
Poland,Tagfeed,true,15,54774 Hollow Ridge Parkway,Apt 1557,Lipiany,74-240,fduffett6d@shinystat.com,5553795913
Portugal,Rhynoodle,false,15,9 Green Circle,Suite 57,Matos da Ranha,3105-378,apasterfield6e@spiegel.de,7048216085
China,Photobug,true,15,0749 Oxford Hill,Room 260,Cunliji,,sathersmith6f@wufoo.com,8401876326
Nigeria,Photobug,true,15,51 Becker Drive,Apt 1571,Magumeri,,cbarrabeale6g@github.io,1701976857
Peru,Jaxworks,false,15,79183 Monterey Street,14th Floor,San Isidro,,pbarnhart6h@go.com,8233219249
Lithuania,Miboo,false,15,2974 Havey Trail,6th Floor,Vilkaviskis,70073,glugden6i@altervista.org,5478009548
Iran,Plajo,false,15,55 Graceland Hill,Apt 759,Tākestān,,rgirvin6j@cyberchimps.com,2528805218
China,Mynte,false,15,04 Darwin Crossing,PO Box 42584,Oumiao,,aferre6k@hugedomains.com,8116785226
Mongolia,Wordware,false,15,2542 Tennyson Crossing,Apt 907,Bürenhayrhan,,fsaurin6l@mayoclinic.com,2021996943
New Zealand,Gigabox,false,15,17994 Reindahl Crossing,19th Floor,Wakefield,7052,sjanse6m@ow.ly,6719280323
Philippines,Snaptags,false,15,431 Londonderry Court,Suite 80,Nagcarlan,4002,xbonett6n@liveinternet.ru,2666711907
China,Jabberbean,true,15,52 Roxbury Drive,PO Box 93212,Taiping,,lgoosey6o@ycombinator.com,5271132316
Macedonia,Flashdog,true,15,1937 Maryland Place,Apt 835,Gurgurnica,7314,apittle6p@imdb.com,5676385871
Indonesia,Skyble,true,15,01 Westerfield Center,Room 1906,Sumurwaru,,adoulden6q@businessweek.com,4221597259
Philippines,Mydo,true,15,1 Hauk Circle,PO Box 87004,San Mateo,3318,lcallar6r@free.fr,6223168231
Russia,Meejo,true,15,314 Tennyson Junction,PO Box 81275,Bolotnoye,633343,swimp6s@wikimedia.org,4871011466
Brazil,Vinte,false,15,99137 Drewry Road,Room 519,Franco da Rocha,07800-000,mtruckett6t@etsy.com,8404788506
United States,Avaveo,true,15,3 Norway Maple Place,PO Box 39210,Shreveport,71161,aknath6u@howstuffworks.com,3185630932
Kazakhstan,Skyvu,true,15,30660 Autumn Leaf Pass,Suite 23,Būrabay,,vboscott6v@mtv.com,2343731888
China,Twimm,true,15,81 Eastlawn Parkway,PO Box 94306,Ulan Us,,lagnolo6w@omniture.com,7989886205
Palestinian Territory,Mynte,false,15,46627 Sutteridge Hill,PO Box 50696,Al Judayrah,,mslocomb6x@merriam-webster.com,6342287421
Thailand,Kanoodle,true,15,250 Morningstar Avenue,Room 1078,Si Bun Rueang,39180,cgerrets6y@marketwatch.com,8076766663
Honduras,Nlounge,false,15,96 Barby Parkway,PO Box 34759,Duyure,,eabade6z@shareasale.com,4001204843
Indonesia,Abatz,true,15,5 Lien Way,17th Floor,Solok Timur,,aballe70@eepurl.com,6804561154
Kazakhstan,Voolia,true,15,649 Dawn Plaza,PO Box 93397,Sarykemer,,lgettins71@google.co.uk,7417515520
Iran,Gabvine,false,15,461 Grover Hill,Suite 8,Behbahān,,rquant72@w3.org,6128425661
Indonesia,Riffwire,false,15,31118 Schlimgen Terrace,Room 472,Kotabaru,,elear73@washingtonpost.com,4377603796
China,Mita,false,15,7 Evergreen Parkway,1st Floor,Xinqiaohe,,cstairmond74@toplist.cz,8123533633
Bulgaria,Twinte,false,15,289 Nova Point,Suite 81,Smolyan,4754,dbrunker75@rediff.com,4391993795
Canada,Yakidoo,true,15,6 Kenwood Road,9th Floor,Saint-Sauveur,J0R,rknightly76@webeden.co.uk,1353579369
Cambodia,Fiveclub,false,15,961 Kings Court,18th Floor,Paôy Pêt,,fbartholin77@tinypic.com,3231678069
Croatia,Realmix,true,15,44 Holy Cross Place,Room 512,Belišće,31551,gkowal78@smh.com.au,9307565511
Ukraine,Digitube,false,15,99331 David Court,PO Box 35113,Shepetivka,,cpiwall79@oakley.com,1772085842
East Timor,Youspan,true,15,14 Forest Run Terrace,PO Box 74992,Venilale,,dabbs7a@freewebs.com,5467951774
Brazil,Trudeo,false,15,130 Nova Hill,PO Box 84740,Poá,08550-000,imeasham7b@liveinternet.ru,4653616440
Indonesia,Yombu,true,15,8458 Morningstar Place,10th Floor,Tampekan,,hingyon7c@tiny.cc,7179482357
Indonesia,Dabtype,true,15,4 Muir Avenue,Suite 85,Baun,,uguwer7d@imdb.com,2173849110
Japan,Vitz,false,15,8350 Monument Hill,2nd Floor,Shiraoka,349-0218,tstatham7e@w3.org,3924394087
Gambia,Midel,false,15,2 Lunder Alley,Suite 13,Nyamanari,,blofty7f@1688.com,1564064637
Chile,Devcast,false,15,4480 Springs Junction,17th Floor,Diego de Almagro,,mhutcheson7g@cyberchimps.com,2042371520
Indonesia,Linkbuzz,true,15,831 Northport Street,Room 272,Ntoke,,akrollmann7h@uol.com.br,5953807230
Tunisia,Lazzy,false,15,84 Farwell Hill,Apt 49,Ariana,,bkleinerman7i@list-manage.com,5651456818
Netherlands,Eimbee,true,15,8 Farwell Junction,Apt 1998,Leiden,2329,avanoort7j@guardian.co.uk,6262482430
Portugal,Brainbox,false,15,52 Sullivan Lane,Apt 599,Castelo,4980-681,kcramphorn7k@netvibes.com,4093726501
Angola,Yakidoo,true,15,3 Sachtjen Park,PO Box 22236,Sumbe,,mteissier7l@ameblo.jp,4413429405
China,Npath,false,15,47527 Laurel Alley,PO Box 16443,Hongsihu,,dwheldon7m@lycos.com,4212433337
Brazil,Rhyzio,true,15,356 Kim Junction,8th Floor,Ouricuri,56200-000,sgumbley7n@umn.edu,4557822400
Indonesia,Dynabox,false,15,44746 Scoville Hill,Room 1655,Kerek,,jkuhndel7o@weibo.com,1621381047
Indonesia,Bluejam,false,15,7 Nevada Pass,7th Floor,Kedungharjo,,apinfold7p@sun.com,5962718902
France,Pixonyx,false,15,20408 Rockefeller Street,Apt 410,Saint-Marcellin,38164 CEDEX,nkinsella7q@twitpic.com,5372011151
Nicaragua,Trudeo,true,15,14 Bonner Crossing,8th Floor,La Cruz de Río Grande,,ssotworth7r@miibeian.gov.cn,8901770967
Argentina,Topicware,true,15,4 Monument Alley,Apt 1242,Villa Atamisqui,4317,gcanedo7s@domainmarket.com,8069386605
Indonesia,Meevee,false,15,89 Susan Plaza,Room 1636,Banjar,,edaniello7t@ustream.tv,7841959179
Poland,Brainverse,true,15,261 Bultman Terrace,9th Floor,Stara Kornica,08-205,lcasiroli7u@usnews.com,4239117151
China,Minyx,true,15,656 Bluejay Road,20th Floor,Xiangyang,,ddrewett7v@census.gov,2361439973
Russia,Katz,true,15,1 8th Parkway,Suite 83,Tuymazy,452778,llegh7w@last.fm,3309276876
Poland,Eare,true,15,635 Vidon Lane,Apt 1666,Wolin,72-510,fblackie7x@wired.com,9611541092
Canada,Meedoo,false,15,072 Mandrake Crossing,Apt 1495,Carleton Place,K7C,skurth7y@ovh.net,4761245957
Brazil,Gabtune,true,15,1046 Monterey Point,Suite 49,Marau,99150-000,elemme7z@yelp.com,7834377257
China,Trunyx,true,15,9045 Doe Crossing Road,Apt 1822,Chuandao,,hduling80@who.int,2783934907
Poland,Tekfly,true,15,0579 Farragut Alley,Room 470,Piątnica,18-421,mmandal81@earthlink.net,3097814767
Brazil,Wikibox,false,15,88027 Hagan Way,20th Floor,Mangaratiba,23860-000,ajanssen82@zdnet.com,6525405656
Bangladesh,Bluezoom,false,15,481 Jenifer Lane,Suite 83,Sirājganj,5611,kfalkous83@ed.gov,3365424912
Madagascar,Thoughtblab,true,15,58 Roxbury Lane,PO Box 33483,Ambovombe,,jgoodby84@springer.com,1492737710
Philippines,Tambee,false,15,477 Bartillon Lane,Apt 1420,Tungol,9407,akovnot85@blogspot.com,4642636782
Belarus,Avamba,true,15,8 Acker Trail,PO Box 43632,Kalodzishchy,,oibbett86@newyorker.com,4072932573
Brazil,Voonyx,false,15,893 Warbler Circle,Room 1704,Criciúma,88800-000,dgaffey87@microsoft.com,3707848120
China,Layo,false,15,15 Rowland Hill,Apt 918,Jingguan,,mwenman88@deliciousdays.com,1612038778
South Korea,Tagchat,true,15,23063 East Plaza,Room 309,Asan,,geveriss89@europa.eu,1443732050
Kazakhstan,Blognation,false,15,0 Hoard Lane,PO Box 93930,Novoishimskiy,,xhearnah8a@hugedomains.com,1614664855
China,Babbleblab,true,15,937 Jay Lane,Apt 589,Shaowu,,rmcginly8b@nasa.gov,5716502231
Albania,Tagfeed,false,15,87530 Holy Cross Alley,Suite 50,Kurjan,,ztilbey8c@sina.com.cn,1726379453
China,Latz,true,15,02 Oak Valley Circle,PO Box 7310,Meitang,,rmatlock8d@blogger.com,7518020604
China,Jaloo,false,15,05 Derek Crossing,14th Floor,Guangdu,,jlissemore8e@angelfire.com,3161676385
Indonesia,Oyonder,true,15,9 Kennedy Trail,Suite 22,Nangkapayung,,apharaoh8f@de.vu,2301848290
Indonesia,Skyndu,false,15,13 Maple Wood Court,PO Box 58818,Binangun,,cbranca8g@nps.gov,1766534222
Russia,Snaptags,false,15,933 Bashford Junction,Suite 55,Bureya,676701,spolly8h@senate.gov,4606095982
South Korea,Zoomdog,false,15,0897 Meadow Valley Terrace,Room 741,Busan,,gbiffen8i@cnet.com,3055796621
Indonesia,Yotz,false,15,88096 Johnson Terrace,Room 728,Sidaurip,,dcamplen8j@blog.com,7937177944
China,Dabtype,true,15,931 Leroy Place,Suite 21,Longping,,adunkerley8k@tinyurl.com,4225162656
United States,Rhynyx,true,15,095 Rutledge Drive,10th Floor,Los Angeles,90189,dextill8l@bloomberg.com,2132515726
China,Miboo,false,15,01 Hooker Parkway,Apt 1136,Qiping,,dmuge8m@edublogs.org,3856738288
Venezuela,Teklist,false,15,88 Namekagon Point,Suite 47,Las Mercedes,,ccogin8n@hugedomains.com,7536080070
Albania,Plajo,true,15,16 Larry Pass,Suite 60,Kryevidh,,asmartman8o@globo.com,8242766354
Macedonia,Flashset,true,15,040 Heath Parkway,Apt 1764,Чучер - Сандево,1011,cpumfrey8p@domainmarket.com,9994962109
Greece,Cogidoo,true,15,3 Trailsway Lane,Suite 63,Náousa,,theinritz8q@ibm.com,4032887845
China,Aimbu,true,15,526 Canary Way,Room 1571,Shuiyuesi,,eakaster8r@huffingtonpost.com,1399377575
China,Mynte,false,15,8 Hagan Alley,Apt 1865,Daohe,,lroscamp8s@kickstarter.com,6659624968
United States,Oyondu,true,15,88476 Gina Lane,PO Box 27887,Dayton,45432,vcornick8t@prlog.org,9374946536
Thailand,Feedspan,true,15,77 Anniversary Hill,18th Floor,Pathum Rat,45190,taylin8u@newsvine.com,1558152621
Indonesia,Rhybox,false,15,89734 Petterle Junction,5th Floor,Siborong-borong,,mpottiphar8v@umich.edu,2366151627
China,Kare,true,15,3 Kropf Hill,Apt 335,Lijia,,jhewson8w@scientificamerican.com,9262744813
China,Divavu,true,15,34764 Prairie Rose Trail,Room 1102,Lukou,,bmatthis8x@howstuffworks.com,3631955666
China,Trilia,true,15,4630 Charing Cross Hill,PO Box 55463,Wuxue Shi,,mmarconi8y@ca.gov,9146026740
Guinea,Devbug,true,15,9679 Eastwood Crossing,Room 1576,Beyla,,bloweth8z@instagram.com,6693420992
Kazakhstan,Dabfeed,false,15,51852 Russell Road,Apt 1518,Akkol’,,agiggs90@vkontakte.ru,7095392606
China,Centimia,true,15,85 Heath Place,Suite 78,Zhihe,,divatt91@nationalgeographic.com,2079985625
China,Fiveclub,false,15,60 Eastlawn Avenue,Apt 477,Wucun,,rfindley92@typepad.com,2636954642
Afghanistan,Kazu,true,15,28 Knutson Avenue,PO Box 79021,Dū Laīnah,,jdomenget93@bloglovin.com,4117139196
Kuwait,Edgepulse,false,15,43467 Forest Junction,Apt 1287,Al Finţās,,rvye94@nhs.uk,6599496106
Malaysia,Twimm,false,15,33 Sloan Lane,Apt 1084,Kota Kinabalu,88610,cnorwich95@dailymail.co.uk,1968684345
Japan,Latz,true,15,68 Declaration Trail,Apt 1815,Kaizuka,597-0095,alightning96@parallels.com,7766865967
China,Demimbu,false,15,4422 Elmside Park,Apt 1350,Xixia,,cjarrette97@issuu.com,6204214151
Vietnam,Yacero,true,15,5567 Katie Circle,Suite 15,Gia Nghĩa,,agoodhall98@accuweather.com,7523325754
China,Dabvine,true,15,8166 Autumn Leaf Hill,PO Box 78640,Yunmen,,jmynott99@unicef.org,3593040295
Brazil,Omba,true,15,13556 Buell Plaza,Suite 28,Águia Branca,29795-000,kvitall9a@sitemeter.com,5441524283
Azerbaijan,Realblab,true,15,7090 Warrior Hill,10th Floor,Agdzhabedy,,lbread9b@seesaa.net,8468685473
Cuba,JumpXS,false,15,90 Wayridge Way,PO Box 14060,Güines,,gwagstaff9c@godaddy.com,7529235095
China,Meevee,false,15,0979 Ruskin Place,PO Box 48452,Liulin,,akeeling9d@mapquest.com,4348984909
China,Flashdog,false,15,74439 Kingsford Parkway,Suite 64,Xiheshan,,fpriter9e@xing.com,1206328053
China,Yotz,false,15,9578 Graedel Avenue,Suite 31,Jiaoxie,,kkingcote9f@goo.ne.jp,9157088689
New Zealand,Voomm,false,15,91402 Lyons Junction,Apt 69,Raglan,3297,crusse9g@soup.io,5401571166
Indonesia,Quatz,true,15,70039 Village Green Way,Suite 76,Mandepa Barat,,afalkus9h@princeton.edu,6375996964
Brazil,Avamm,false,15,19 Maple Terrace,PO Box 34609,Sarzedo,32450-000,abendon9i@deliciousdays.com,4088323386
China,Abata,false,15,03112 Garrison Street,Apt 1550,Nangang,,tmertel9j@google.com.au,4962494978
Philippines,Mynte,false,15,0 Thompson Junction,Apt 1030,Tacurong,9800,rakess9k@yolasite.com,4932093645
Spain,Agimba,false,15,101 Utah Court,Apt 1131,Santiago De Compostela,15705,cculbard9l@blog.com,6264506966
China,Bluejam,false,15,36 Redwing Pass,Apt 1778,Wangjiahe,,eperigeaux9m@ezinearticles.com,9767497101
Philippines,Gevee,false,15,46 Fuller Crossing,PO Box 84964,Sulop,8009,lundrill9n@list-manage.com,4922062467
Ecuador,Feednation,false,15,85 North Drive,Apt 644,Huaquillas,,bvautier9o@123-reg.co.uk,4356792257
China,Tekfly,true,15,529 Arrowood Court,9th Floor,Ning’an,,amckeurtan9p@adobe.com,1382380739
Japan,Jabbersphere,false,15,01735 Merry Place,Suite 100,Sōka,341-0053,zelbourn9q@acquirethisname.com,1517772519
France,Flashpoint,true,15,740 Acker Point,Suite 19,Ajaccio,20184 CEDEX 1,ajerdein9r@soundcloud.com,6792008839
France,Izio,false,15,355 Nobel Alley,Apt 520,Le Mans,72052 CEDEX 2,cthebe9s@huffingtonpost.com,4758860774
Bangladesh,Photojam,false,15,325 Fairfield Alley,5th Floor,Gaurnadi,8242,egebb9t@senate.gov,4126046229
Montenegro,Feedspan,true,15,5079 North Plaza,6th Floor,Podgorica,,madey9u@bbb.org,1143274619
France,Skaboo,false,15,036 Forest Road,Room 386,Tarbes,65022 CEDEX 9,bentwhistle9v@seesaa.net,2528627471
China,Skipstorm,true,15,91 Evergreen Road,10th Floor,Liaobu,,madolfsen9w@hubpages.com,6878049657
Mauritius,Linkbridge,false,15,1484 Jana Hill,20th Floor,Espérance Trébuchet,,dudale9x@google.it,8101241544
China,Trunyx,false,15,0540 Clyde Gallagher Center,18th Floor,Xinjian,,rsatch9y@gravatar.com,4093539813
Philippines,Oyoloo,true,15,5 Eagle Crest Hill,2nd Floor,Nugas,3102,mruckman9z@wikimedia.org,2508849919
Uruguay,Edgeclub,true,15,9013 Fieldstone Avenue,Room 889,Villa del Carmen,,acoopea0@cbslocal.com,7957965661
Ireland,Skyndu,true,15,67572 Myrtle Pass,Room 376,Carrigtwohill,P24,ggaskinga1@example.com,5991471648
Russia,Thoughtbridge,false,15,09 Helena Road,PO Box 46583,Ovsyanka,216282,jdunbabina2@aol.com,3671142575
Poland,Innotype,false,15,3 Petterle Road,Room 740,Dąbie,62-660,aloyleya3@liveinternet.ru,3893666328
Czech Republic,Feedmix,false,15,14 West Street,PO Box 64165,Vyškov,683 21,tfawloa4@noaa.gov,6094994100
Russia,Kwinu,false,15,5003 Carey Plaza,Room 1521,Promyshlennovskiy,650904,hpendleberrya5@patch.com,9715279045
Indonesia,Yotz,false,15,946 Texas Trail,Room 21,Cibeureum Kidul,,kfarnfielda6@photobucket.com,3946412091
China,Kanoodle,false,15,37 Cascade Street,Suite 71,Gengma,,rrendera7@scribd.com,6399467862
Brazil,Zoomdog,false,15,23 Parkside Trail,Apt 1621,Guariba,14840-000,nkearsa8@cbc.ca,6008068751
Vietnam,Buzzdog,false,15,73905 Pawling Drive,Room 895,Thị Trấn Triệu Sơn,,sdayntera9@storify.com,3614870459
China,Mudo,false,15,97 Fallview Junction,PO Box 60946,Lin’an,,atinhamaa@xinhuanet.com,5468092968
North Korea,Tazz,true,15,79 Manitowish Crossing,PO Box 37125,Haeju,,nfearfullab@va.gov,6746676638
China,Feedfish,true,15,8 Stephen Pass,PO Box 69516,Binjiang,,jdoctorac@godaddy.com,4691940508
China,Plajo,false,15,6 Fisk Plaza,Room 166,Yanglinwei,,dhayhurstad@google.com,3629362160
South Africa,Riffpath,true,15,3243 North Park,Apt 1924,Graksop,1274,pratcliffae@cnet.com,5212307949
Thailand,Shuffledrive,true,15,63498 Forest Point,PO Box 5536,Lue Amnat,20270,mperrisaf@mayoclinic.com,6171421073
China,Quinu,false,15,737 Russell Pass,Apt 402,Xiagang,,cwithringtonag@imdb.com,2144529501
Sudan,Janyx,true,15,3 Mccormick Junction,Apt 1497,Berber,,gcowburnah@bandcamp.com,7622299976
France,Twitterbeat,true,15,74169 Weeping Birch Pass,Suite 52,Grenoble,38051 CEDEX 9,dlillfordai@is.gd,9437296612
China,Bluejam,true,15,263 Boyd Way,1st Floor,Guluoshan,,lzaniniaj@sakura.ne.jp,4314235507
Russia,Tagopia,true,15,488 Monica Road,Apt 1054,Asbest,624269,fmairak@discuz.net,9172651783
Peru,Gevee,false,15,46049 Hoffman Center,Suite 27,Muqui,,kivasyushkinal@army.mil,8978434207
Monaco,Wikido,false,15,3399 Monica Center,PO Box 31540,La Condamine,98000,mtewnionam@yahoo.com,4138670981
Brazil,Meetz,true,15,4400 Pond Center,Room 1099,Baixo Guandu,29730-000,halburyan@wikimedia.org,9045364820
Indonesia,Meemm,false,15,3419 Kinsman Lane,Suite 43,Cipasung,,ilympenieao@wisc.edu,3729325120
China,Thoughtbridge,false,15,8259 Armistice Plaza,Apt 1955,Huangli,,mprahlap@ibm.com,6535654192
China,Trudeo,true,15,31 Sutteridge Junction,Apt 179,Xiaogang,,kgrayleyaq@mashable.com,1574984786
Armenia,Eazzy,false,15,3 Anzinger Point,Suite 32,Abovyan,,rcorbridgear@cloudflare.com,3518198735
Philippines,Voomm,false,15,8246 Straubel Pass,PO Box 48059,Ampatuan,9609,siacovozzoas@uol.com.br,2923661214
China,Dynava,true,15,10 Eggendart Avenue,Room 301,Xieqiao,,btettersellat@deviantart.com,7575900318
Poland,Jazzy,false,15,3004 Heffernan Drive,Room 199,Puńsk,16-515,aheynsau@latimes.com,7044060704
Tanzania,Innotype,true,15,8 Emmet Center,Suite 81,Nganane,,egeorginsav@smh.com.au,2761533552
Mongolia,Dynava,true,15,2773 Sutteridge Junction,PO Box 32534,Hatavch,,bbaldazziaw@xinhuanet.com,9919993650
Panama,Wordware,false,15,56 Shopko Road,13th Floor,Las Lomas,,mdenisevichax@360.cn,6838168363
Indonesia,Mynte,true,15,17005 Jenifer Street,Suite 60,Seso,,htriggelay@google.nl,4493724904
Syria,Jaxnation,false,15,57583 Doe Crossing Park,Apt 1638,Khanāşir,,clukianovichaz@nba.com,6981315095
China,Realbuzz,true,15,75029 Johnson Road,Room 1164,Jinshan,,krawoodb0@webeden.co.uk,3662684408
Vietnam,Wordware,false,15,192 Scofield Drive,Apt 938,Thị Trấn Triệu Sơn,,pramsdellb1@twitpic.com,7952022726
Greece,Tavu,false,15,3 Oriole Pass,PO Box 94065,Methóni,,grennenbachb2@sbwire.com,6062263862
Burundi,Realmix,true,15,17801 Eliot Terrace,Suite 54,Rutana,,pchadwenb3@drupal.org,5453163003
China,Voomm,false,15,8135 Division Court,Apt 292,Shangganshan,,stheussb4@cam.ac.uk,3034480355
Japan,Blogtag,false,15,019 Crest Line Avenue,Room 1466,Shibetsu,370-0535,nbiggerdikeb5@webeden.co.uk,4212785703
Indonesia,Browsecat,false,15,67045 Kropf Hill,PO Box 73498,Tungoo,,bdelisleb6@tinypic.com,1015051650
Poland,Linktype,true,15,31040 Spenser Way,Apt 648,Stupsk,06-561,taldwichb7@globo.com,3351934334
Czech Republic,Demimbu,true,15,96 Rutledge Point,Suite 47,Strážnice,696 62,hstandishb8@cbsnews.com,6952517946
China,Latz,false,15,747 Hoard Street,PO Box 96606,Shahe,,abickerstaffb9@studiopress.com,3036896658
Indonesia,Aimbu,false,15,5001 Londonderry Alley,Apt 1116,Bendo,,ptrettba@chicagotribune.com,2419975882
Japan,Edgepulse,true,15,49 Havey Parkway,Room 965,Shizuoka-shi,424-0888,vshoesmithbb@sitemeter.com,6496160127
Russia,Devify,true,15,154 Monument Parkway,PO Box 24785,Goryachevodskiy,357560,bbelsherbc@sohu.com,2695885650
Argentina,Brainverse,true,15,68 Fulton Circle,Apt 1081,Cruz Alta,2189,lpirreybd@drupal.org,5059552384
Russia,Kaymbo,true,15,52 Tomscot Street,Room 552,Siverskiy,188355,mklimontovichbe@etsy.com,1411808182
Jamaica,Oloo,false,15,426 Crescent Oaks Trail,Suite 89,Ocho Rios,,akitchasidebf@wordpress.com,4544078093
China,Zazio,true,15,5806 Ridge Oak Lane,PO Box 75383,Majia,,fargentebg@hibu.com,5088813795
Indonesia,Youfeed,false,15,9 Trailsway Drive,Suite 53,Bagusan,,uploughwrightbh@virginia.edu,1542671369
Philippines,Zoonoodle,true,15,7273 Continental Center,Suite 74,Milagros,5410,cmoncrieffebi@live.com,4275916497
Vietnam,Layo,false,15,22 Hanson Circle,Room 1672,Thị Trấn Nho Quan,,nkellawaybj@theguardian.com,4295631640
Nigeria,Agimba,false,15,4 Rutledge Point,PO Box 4848,Gujba,,vfinesbk@dell.com,6907643809
Brazil,Wordify,false,15,18509 Tony Court,14th Floor,Itatinga,18690-000,ngrafhambl@bbb.org,4049723293
Philippines,Devpoint,true,15,317 Orin Way,PO Box 59385,Tuban,3803,adaelmanbm@ucsd.edu,6198965116
Sweden,Twitterlist,false,15,16019 Summer Ridge Parkway,Room 742,Skinnskatteberg,739 30,iwickrathbn@epa.gov,5288290636
Albania,Buzzbean,false,15,3 Vidon Road,7th Floor,Kurjan,,wlawelesbo@etsy.com,5478378282
Ethiopia,Kanoodle,false,15,28031 Carioca Road,Apt 1397,Debre Tabor,,cdowdlebp@networkadvertising.org,5313705028
Brazil,Podcat,false,15,37573 Johnson Road,Apt 1541,Quirinópolis,75860-000,tgerhtsbq@ustream.tv,7224259722
Philippines,Lajo,true,15,266 Brentwood Lane,5th Floor,La Paz,8508,bchinnbr@huffingtonpost.com,7736184218
Portugal,Mycat,false,15,60 Messerschmidt Lane,11th Floor,Coutada,4910-035,fmowettbs@ftc.gov,2854706028
Peru,Agivu,false,15,379 Meadow Valley Parkway,Suite 33,Sunampe,,mmyrickbt@twitter.com,3209308686
Philippines,Linkbridge,false,15,009 Waxwing Avenue,PO Box 41261,Siruma,4427,fchattbu@howstuffworks.com,5364244862
France,Latz,true,15,7 Brentwood Circle,Room 505,Lyon,69464 CEDEX 06,scutbirthbv@php.net,6204013414
Ukraine,Rhynyx,true,15,3578 Roth Avenue,Apt 861,Tsybulevka,,mshilletobw@unicef.org,4573357409
Brazil,Pixope,true,15,541 Forster Junction,Room 333,Tremembé,12120-000,dhookbx@technorati.com,9922076187
Serbia,Gigazoom,false,15,3 Towne Terrace,Suite 11,Novi Kneževac,,emuatby@smh.com.au,8111516291
France,Skippad,false,15,93 Welch Parkway,Suite 58,Avallon,89204 CEDEX,mblakedenbz@google.de,9133982363
Poland,Tavu,false,15,53564 Caliangt Terrace,12th Floor,Dubiecko,37-750,gwarlawec0@yelp.com,5924832362
Chile,Voonte,true,15,9 Goodland Lane,Room 967,Purranque,,jchadc1@people.com.cn,8894569527
Colombia,Yata,false,15,61 Service Crossing,Apt 116,Canalete,235048,hjoirec2@amazon.de,8598203459
Indonesia,Kaymbo,true,15,9 American Ash Lane,PO Box 46855,Sembungan Kidul,,jboxallc3@wunderground.com,3612782376
Portugal,Gabtype,true,15,7 Delladonna Pass,Apt 1071,Marisol,2855-174,mloxstonc4@ycombinator.com,2571426523
Argentina,Skyvu,true,15,5988 Beilfuss Alley,18th Floor,Mattaldi,6271,dstpierrec5@taobao.com,7686743604
Brazil,Voonte,false,15,0520 Warbler Center,Room 200,Itapagé,62600-000,mskiltonc6@cmu.edu,7714194039
Russia,Layo,true,15,10 Wayridge Park,PO Box 19340,Admiralteisky,190990,mcoglec7@reuters.com,8011673626
Uzbekistan,Browsebug,false,15,10520 Meadow Ridge Park,PO Box 32870,Kogon,,cpfliegerc8@privacy.gov.au,3772897292
New Zealand,Skyndu,true,15,0 Vidon Way,Apt 1060,Gore,9740,theinschkec9@zdnet.com,3794217487
Hungary,Fivebridge,true,15,6 Express Trail,19th Floor,Budapest,1086,mtibbitsca@github.com,6526484595
Russia,Topdrive,false,15,6783 Chive Way,Room 95,Tukan,453550,slumbercb@addthis.com,4954294488
China,Voonder,true,15,2 Moland Terrace,20th Floor,Songgai,,gbrentoncc@cbsnews.com,3344501375
Philippines,Babbleblab,true,15,3942 Kropf Street,12th Floor,Santo Tomas,8112,kcristoforcd@china.com.cn,5635375182
Philippines,Voonder,false,15,8695 Pierstorff Parkway,Suite 41,Estaca,1123,uhalmsce@omniture.com,2088215728
Brazil,Avamm,true,15,08 Lunder Pass,Apt 1895,Macau,59500-000,bsealandcf@sina.com.cn,4115900204
Indonesia,Quaxo,false,15,066 Forest Run Road,17th Floor,Gunungputri,,mcressarcg@ted.com,8014560314
Georgia,Bluejam,true,15,130 Cascade Point,16th Floor,Adigeni,,apleadench@cmu.edu,2291806318
United States,Kwimbee,true,15,994 Roxbury Junction,20th Floor,Santa Monica,90410,mdovingtonci@soup.io,3108489586
Indonesia,Katz,false,15,1907 Eastwood Street,Room 879,Tualangcut,,kogianycj@craigslist.org,5647883585
Mexico,Zoonoodle,true,15,782 Elgar Place,Suite 31,Alvaro Obregon,74060,cbinfieldck@moonfruit.com,3401652612
Russia,Topicstorm,true,15,51157 Moland Center,14th Floor,Chernyanka,309573,dchataincl@marketwatch.com,5611551276
Russia,Snaptags,false,15,7 Waubesa Parkway,18th Floor,Korenëvo,393925,abarruscm@sourceforge.net,5608332767
Nigeria,Quimba,false,15,471 Monterey Place,Apt 841,Sofo-Birnin-Gwari,,etillecn@tinypic.com,8231132540
Portugal,Eabox,false,15,898 Shopko Alley,Room 503,Nogueira,4605-410,lwroutco@opera.com,7002487743
China,Skiptube,true,15,43998 Ridge Oak Parkway,Suite 69,Lukou,,cgrogorcp@smugmug.com,3694829773
China,Trunyx,false,15,13 Mallard Crossing,Apt 774,Jiangxiangzhen,,ntwitteycq@hao123.com,2174367905
United Kingdom,Kamba,true,15,1 Rutledge Center,PO Box 5999,Weston,GU32,mrametcr@wsj.com,3035467659
China,Roodel,true,15,0258 Anniversary Pass,13th Floor,Yanqi,,wmadisoncs@comsenz.com,1053904869
Albania,Yambee,true,15,0996 Transport Hill,Room 1229,Bulqizë,,cmcmoyerct@cmu.edu,3072191017
Russia,Browsedrive,true,15,88133 Larry Lane,PO Box 40917,Neryungri,627533,rpresmancu@bloglines.com,5101787734
Russia,Abatz,false,15,9284 Lake View Court,2nd Floor,Zheleznodorozhnyy,393925,cmeighcv@xinhuanet.com,7886466987
Indonesia,Kazu,true,15,6 Butterfield Pass,Suite 81,Atengmelang,,emccartancw@wsj.com,2432564657
Portugal,Feedmix,true,15,88 Pleasure Plaza,Suite 94,Outeiro Seco,5400-715,evuittoncx@indiegogo.com,5154417736
Brazil,Fiveclub,true,15,7 Scoville Terrace,8th Floor,Antonina,83370-000,cburgyncy@instagram.com,7686145093
Indonesia,Rhynoodle,true,15,9763 Johnson Park,Room 1062,Mekarsari,,jmingaycz@shop-pro.jp,8889186481
Mexico,Meemm,true,15,1613 Menomonie Lane,PO Box 24551,Santa Maria,25903,lgaspardd0@devhub.com,6821094935
Thailand,Linkbuzz,true,15,4 Banding Junction,Suite 24,Bang Khon Thi,75120,tdysterd1@ibm.com,4392890049
Guatemala,Eare,false,15,54 Redwing Trail,PO Box 96215,San Miguel Dueñas,03017,fcroalld2@statcounter.com,9847107360
Cayman Islands,Zoovu,false,15,3 Lawn Lane,Apt 982,George Town,,asinkind3@exblog.jp,7135211905
Colombia,Skinte,false,15,8 Duke Center,15th Floor,La Montañita,181067,cabdond4@comsenz.com,3975481160
Nigeria,Digitube,true,15,585 Huxley Terrace,16th Floor,Deba Habe,,sgabitsd5@mozilla.org,7803546544
Russia,Camimbo,true,15,0845 Acker Way,Apt 255,Pochep,243418,fguyotd6@naver.com,7551676853
Portugal,Voomm,false,15,775 Bartillon Road,18th Floor,Fornelos,5030-213,mdaymontd7@rediff.com,2678943365
Brazil,Youtags,true,15,6643 Mockingbird Place,Suite 91,Atibaia,12940-000,mbraddockd8@spotify.com,2483746536
Dominican Republic,Zoomdog,false,15,945 Village Lane,PO Box 20937,Bella Vista,10112,cboornd9@vimeo.com,1151954869
Bosnia and Herzegovina,Agivu,true,15,94 Bay Drive,Suite 48,Gornja Koprivna,,ccarrabottda@yandex.ru,9647155243
Czech Republic,Blogspan,true,15,78696 Manitowish Alley,Suite 27,Dolní Dvořiště,382 72,imccrawdb@forbes.com,4737614381
China,Jamia,false,15,834 Holy Cross Plaza,Suite 55,Huanren,,fbarbourdc@joomla.org,1681524202
China,Brightdog,false,15,804 Sutteridge Terrace,Room 517,Nanyang,,djurczikdd@state.tx.us,5125607748
Brazil,Oyoloo,false,15,584 Aberg Point,Suite 51,Colinas,95895-000,bscourgede@squidoo.com,1586933594
Portugal,Devshare,false,15,21695 Melby Point,Suite 13,Paço de Arcos,2770-005,vgierardidf@census.gov,3904048962
Russia,Mynte,false,15,9292 Mendota Lane,Apt 1375,Levoberezhnaya,141707,wpetrusdg@theglobeandmail.com,2247966393
Russia,Jabbercube,true,15,05 Lake View Place,Suite 64,Saint Petersburg,190990,nbrookwelldh@xinhuanet.com,5664900754
Japan,Skidoo,true,15,2 Iowa Avenue,PO Box 10121,Shiroi,506-2118,fmcmeartydi@japanpost.jp,6728482662
Philippines,Ozu,true,15,6688 Autumn Leaf Road,Apt 894,Kinalaglagan,5614,bmacvaydj@pagesperso-orange.fr,8088202635
Sweden,Skyba,false,15,9230 Dorton Lane,Suite 94,Bandhagen,124 54,psatyforddk@netvibes.com,9306225245
Philippines,Oyonder,true,15,161 Eastlawn Street,Suite 94,Reina Mercedes,3303,ceidlerdl@xing.com,7545898436
Azerbaijan,Mynte,true,15,829 Brown Avenue,6th Floor,Kyurdarmir,,cweirdm@salon.com,2399068330
Ukraine,JumpXS,true,15,04212 Granby Park,Apt 837,Kolomyya,,jfoakesdn@sphinn.com,4442684961
Brazil,Demivee,false,15,024 Bartelt Drive,Room 1062,Portelândia,75835-000,fmclleesedo@wp.com,6494662610
Nigeria,Jetwire,false,15,854 Buell Trail,8th Floor,Shaffa,,kjovanovicdp@shutterfly.com,7498966772
Peru,Zoonder,true,15,3 Drewry Parkway,16th Floor,Végueta,,tconboydq@arizona.edu,7884268481
China,Quimba,true,15,768 Sullivan Court,Apt 1609,Shuyuan,,spagondr@sakura.ne.jp,7584132469
China,Yabox,true,15,27 Thompson Street,2nd Floor,Jingmen,,fkyberdds@mediafire.com,1483153724
South Africa,Leexo,true,15,70 Mockingbird Hill,Suite 87,Rosebank,7945,bitterdt@msn.com,1928746105
China,Fivechat,false,15,17713 Superior Avenue,Apt 747,He’an,,mcattrolldu@jimdo.com,7457477192
Yemen,Eayo,false,15,44482 Manufacturers Trail,PO Box 48050,Al Qaţn,,crutgersdv@dagondesign.com,4136568335
Mexico,Buzzdog,false,15,01 Grasskamp Hill,PO Box 87798,Vicente Guerrero,39200,sbridgensdw@angelfire.com,1964426418
China,Skidoo,true,15,5 Wayridge Point,Apt 1837,Xiangshun,,acundeydx@cafepress.com,9373326999
China,Cogidoo,false,15,1583 Kropf Court,PO Box 31998,Shuangbaiyang,,rhillumdy@prlog.org,6661747035
Russia,Mycat,true,15,95519 Lakewood Gardens Way,Apt 323,Zelenchukskaya,369227,vlilbournedz@cbc.ca,9501530763
Thailand,Innotype,true,15,9019 Grover Pass,Room 1989,Raman,95140,mbonasse0@indiatimes.com,3706304056
Poland,Mudo,false,15,8941 Lakeland Park,Apt 1418,Ostrówek,98-311,haldritte1@ovh.net,4392576922
United States,Ailane,true,15,04 Lunder Hill,Room 727,Hampton,23663,jryane2@slideshare.net,8045114730
Argentina,Tagcat,false,15,0 Annamark Drive,Suite 58,Jardín América,3332,kmacgillee3@dropbox.com,4937755817
China,Feedbug,true,15,80 Portage Crossing,Suite 43,Jiangdianzi,,erycrafte4@irs.gov,2392246159
China,Avaveo,false,15,987 Bartelt Trail,Suite 100,Ewirgol,,lfettese5@newsvine.com,2043196720
Philippines,Bubbletube,true,15,9 Eastwood Lane,12th Floor,Manaloal,6041,scadgee6@rambler.ru,4539261847
China,Kwimbee,false,15,5 Texas Pass,PO Box 27417,Jieduo,,rzelnere7@imgur.com,2082829021
China,Tazzy,true,15,61321 Village Hill,Suite 1,Baojia,,aofihilliee8@berkeley.edu,2376279821
Peru,Thoughtstorm,false,15,5 Talmadge Road,4th Floor,Tumbes,,hfinlaye9@vkontakte.ru,3701202081
China,Kimia,true,15,8530 Graceland Circle,18th Floor,Guta,,sbaythorpea@lycos.com,1422134178
Indonesia,Tekfly,true,15,47 Tennessee Street,3rd Floor,Nunleu,,sogerseb@blog.com,5804286443
France,Yakitri,true,15,84 Shoshone Court,Room 705,Voiron,38509 CEDEX,emonroeec@nih.gov,3387329304
Indonesia,Trilith,false,15,445 Utah Junction,Apt 1981,Kaduengang,,cessebyed@skype.com,7441007074
Thailand,Fivebridge,false,15,25982 Washington Lane,PO Box 57141,Ratchaburi,84180,mbaldoniee@homestead.com,6695597729
Germany,Twitterbridge,false,15,6468 Schlimgen Circle,Room 1297,Dresden,01462,rscammellef@163.com,7112457980
Poland,Babbleset,false,15,389 Cody Court,Suite 3,Wysoka Strzyżowska,38-123,lskingleyeg@wikimedia.org,3511421083
Indonesia,Centimia,false,15,5983 Coleman Alley,Suite 90,Klemunan,,kmilbankeh@last.fm,8349009507
Guatemala,Lazzy,true,15,16 Twin Pines Place,19th Floor,Champerico,11007,lshyresei@wunderground.com,6423394980
Russia,Realbuzz,false,15,7059 Stone Corner Junction,10th Floor,Turan,668510,sbrydonej@godaddy.com,2943127971
Finland,Thoughtbeat,false,15,6 Cambridge Road,Apt 849,Simo,95201,rjankiewiczek@yandex.ru,8554263882
Japan,Livetube,false,15,1 7th Street,Room 1491,Gōdo,503-2429,jschutteel@sbwire.com,5591203369
Indonesia,Oyoloo,false,15,47 Corben Hill,PO Box 56566,Cangkeuteuk Sabrang,,snorcottem@livejournal.com,4194582675
Portugal,Thoughtmix,false,15,35 Mayer Pass,Room 1494,Castanheira de Pêra,3280-011,bhaquinen@zdnet.com,5126542952
Indonesia,Browsezoom,false,15,37144 Holmberg Way,Room 150,Pasirhuni,,sbatripeo@hugedomains.com,4497462872
Nigeria,Linklinks,false,15,089 Trailsway Place,PO Box 55093,Igede-Ekiti,,bpinckedep@statcounter.com,9284907288
Indonesia,Meedoo,false,15,08229 Birchwood Way,Apt 1934,Asahbadung,,jaupoleq@ask.com,9799896938
Portugal,Wordware,true,15,1 Holmberg Parkway,Apt 1774,Caldas da Felgueira,3525-205,cmcskeaganer@ted.com,7795866675
Indonesia,Cogilith,false,15,14890 Lien Road,PO Box 97898,Leuwihalang,,jfulbrookes@fema.gov,9799253479
Indonesia,Youfeed,false,15,98 Longview Center,13th Floor,Sukamulya,,sshreveet@ed.gov,3395600080
Indonesia,Kare,true,15,7 West Street,Suite 92,Gandrungmangu,,vleeuwerinkeu@abc.net.au,5115981415
Ireland,Linkbuzz,true,15,56 Blaine Lane,PO Box 28152,Clifden,H71,gjanissonev@google.co.jp,8748215383
Russia,Devpulse,false,15,3891 Warrior Place,Suite 26,Staroyur’yevo,442050,scoldrickew@mozilla.org,9146411729
Sweden,Fanoodle,true,15,7109 Blue Bill Park Road,PO Box 58368,Bohus,445 33,amchargex@dedecms.com,3488629303
United States,Twitterwire,true,15,8 Springview Junction,Room 548,Columbus,31998,gblagbroughey@china.com.cn,7061113541
Poland,Yoveo,false,15,31 Express Drive,12th Floor,Łomża,18-404,mpedroez@berkeley.edu,9557932421
Uzbekistan,Browsecat,false,15,43 Main Terrace,Suite 66,Qorovulbozor,,gchippingf0@miitbeian.gov.cn,6224448984
Philippines,Skinix,false,15,7788 Schiller Drive,5th Floor,Saguiaran,9701,vpicklef1@meetup.com,7482959356
Thailand,Feedbug,false,15,64090 Messerschmidt Pass,19th Floor,Wat Bot,65160,thubeauxf2@senate.gov,7143448937
China,Skippad,true,15,5878 Morning Plaza,Room 1927,Ganxi,,agaishf3@wikipedia.org,8729739212
Argentina,Gigashots,true,15,440 Ridgeview Way,Suite 33,Dalmacio Vélez Sársfield,5919,knovillf4@guardian.co.uk,7214334036
Ireland,Buzzdog,false,15,20 Havey Crossing,Apt 396,Tallaght,D24,coccleshawf5@tripadvisor.com,7358678480
China,Trupe,true,15,1491 Brickson Park Drive,Suite 48,Kangxung,,edaltryf6@weibo.com,8892057169
Armenia,Rooxo,false,15,5 Mariners Cove Crossing,Apt 1479,Sevan,,aphillpotf7@springer.com,5835367016
Poland,Twitternation,true,15,07 Stone Corner Street,Apt 785,Włosienica,32-642,fkornilyevf8@cdbaby.com,4693170258
Sweden,Devpoint,true,15,69 Norway Maple Circle,Apt 1512,Göteborg,401 99,jstubsf9@indiatimes.com,2528073443
Indonesia,Katz,true,15,56 Texas Street,Room 1472,Kapakabisa,,mfeldbergerfa@tinyurl.com,9172343613
Ireland,Flashpoint,true,15,55 Pennsylvania Center,Room 1209,Moycullen,A41,rdimnagefb@hc360.com,2104290163
Indonesia,Voomm,true,15,95442 Grim Hill,PO Box 78718,Seririt,,hmeashamfc@tripadvisor.com,7686655525
Namibia,Livetube,false,15,4 Hoffman Avenue,10th Floor,Outjo,,ptolertonfd@go.com,7589773148
Ukraine,Bubblebox,true,15,18925 Clarendon Road,Suite 75,Chapayeve,,ggrayerfe@blinklist.com,2494669322
Nigeria,JumpXS,true,15,33960 Mitchell Pass,Apt 1141,Gumel,,msprowellff@constantcontact.com,8163112899
China,Cogidoo,true,15,9 Express Terrace,PO Box 98571,Xihe,,vmadgwichfg@google.it,6053636419
Serbia,Bluejam,true,15,430 Birchwood Trail,Room 1608,Valjevo,,ekeysallfh@bing.com,3135743910
South Korea,Thoughtbridge,false,15,1 Little Fleur Parkway,Suite 83,Suwon-si,,iquartermainfi@themeforest.net,8455472229
Poland,Shufflebeat,true,15,34 Lien Court,Room 593,Piotrków Trybunalski,97-312,gizakovitzfj@weibo.com,9524199582
Poland,Voomm,true,15,64 Crowley Junction,PO Box 36358,Chlewiska,26-510,obootmanfk@ustream.tv,1551286932
Russia,Skyndu,true,15,4886 Parkside Hill,Apt 1188,Primorsk,188910,hbrolanfl@e-recht24.de,8985451058
Russia,Edgepulse,true,15,544 Golden Leaf Plaza,PO Box 73706,Mishkino,453747,spauleyfm@arstechnica.com,4813880606
China,Youbridge,true,15,019 Upham Crossing,2nd Floor,Guzhan,,mbagsterfn@biglobe.ne.jp,6265632683
Indonesia,Blognation,false,15,8488 Butterfield Parkway,13th Floor,Weetobula,,craddenburyfo@drupal.org,8697804992
Peru,Zoozzy,false,15,0 Crownhardt Parkway,PO Box 37208,Olleros,,dainsliefp@dell.com,3978459873
Pakistan,Wikizz,true,15,74 Knutson Street,15th Floor,Landi Kotal,24740,srisleyfq@t.co,5715875346
China,Youfeed,false,15,91058 Hagan Park,Room 784,Jiaozuo,,gfletcherfr@mlb.com,4184104745
Indonesia,Mycat,false,15,7778 Farwell Crossing,Suite 9,Pepayan,,rstuddalfs@mozilla.org,7236141151
Tunisia,Quinu,false,15,10294 Calypso Way,Apt 736,Majāz al Bāb,,dmckiddinft@multiply.com,2881364166
France,Kare,true,15,9 Buena Vista Hill,PO Box 16021,Tours,37922 CEDEX 9,dfockesfu@newyorker.com,9543530931
China,Topicblab,false,15,6418 Sachtjen Point,PO Box 23834,Fuli,,cashpolefv@infoseek.co.jp,5061189973
China,Centizu,false,15,25447 Portage Plaza,Apt 1669,Huazhou,,senglishfw@vistaprint.com,5219942323
China,Twimbo,false,15,47853 Dovetail Trail,Room 1417,Luoshan,,mrosentholerfx@twitpic.com,8519849427
China,Gabspot,true,15,12 Memorial Avenue,Suite 4,Guandu,,fwandlessfy@harvard.edu,5843469890
China,Quatz,false,15,67354 Corry Court,14th Floor,Lianyun,,csaltfz@networkadvertising.org,4989547104
Japan,Fadeo,false,15,7 International Avenue,15th Floor,Mitsukaidō,306-0614,wdarwentg0@angelfire.com,5765152892
Morocco,Skivee,true,15,65 Pine View Alley,17th Floor,Timoulilt,,gsummersideg1@timesonline.co.uk,8918818608
Poland,Yodo,false,15,6991 Mayer Crossing,14th Floor,Racławice,32-222,vfloundersg2@loc.gov,8595775347
Indonesia,Cogibox,false,15,2 Lunder Parkway,Suite 6,Darungan Lor,,knorcliffeg3@usnews.com,6584661536
China,Kazu,true,15,12 Thompson Road,Suite 14,Zhaoyuan,,jwallbrookg4@devhub.com,9588104905
China,Photobug,true,15,9228 Summit Terrace,16th Floor,Weizhou,,brexg5@goo.gl,3111329668
Brazil,Blognation,true,15,3 Arizona Drive,Apt 1855,Pinhão,49517-000,tfrugierg6@geocities.com,6287643320
Sweden,Dynabox,false,15,0 Shelley Plaza,Apt 1356,Solna,169 30,tgableg7@earthlink.net,7249525993
Chile,Vidoo,false,15,90396 Stoughton Plaza,PO Box 79676,Puerto Montt,,fskippingg8@gravatar.com,6633732933
Indonesia,Quatz,true,15,958 Bunting Terrace,Apt 469,Wonoharjo,,tkensholeg9@geocities.com,9614309078
Cameroon,Mybuzz,false,15,54 Duke Place,Apt 1732,Bekondo,,dwinterfloodga@berkeley.edu,3713534441
Russia,Tekfly,true,15,50604 David Plaza,Apt 842,Staronizhestebliyevskaya,606231,csterlinggb@wired.com,2438459572
China,Jamia,false,15,2 Texas Pass,Suite 38,Gushan,,ytiddemangc@1688.com,1274008693
United States,Babbleset,true,15,8704 Reinke Trail,PO Box 61588,Youngstown,44511,chillyattgd@berkeley.edu,3307217736
China,Babbleopia,true,15,58 Merry Circle,Room 131,Hecun,,dshotterge@noaa.gov,7577552366
Philippines,Mybuzz,false,15,41299 Northport Point,PO Box 69206,Mambusao,5807,bdesremediosgf@msu.edu,8607662618
Sweden,Shufflester,false,15,60 Cherokee Parkway,20th Floor,Karlstad,654 68,gbarnfathergg@paypal.com,1395950071
Brazil,Lajo,false,15,0 Fuller Park,1st Floor,Cambé,86180-000,pbeininggh@gov.uk,5171380764
Bolivia,Ainyx,false,15,54762 Arrowood Junction,Suite 14,Colomi,,ttofanelligi@addthis.com,4146107095
Thailand,Babblestorm,true,15,7 Waxwing Pass,PO Box 47306,Kui Buri,77150,ofittisgj@va.gov,4425782256
Portugal,Photojam,false,15,95566 Alpine Terrace,Room 1469,Calçada,4930-345,bamosgk@comcast.net,2774876965
Ukraine,Photospace,false,15,5184 Ridge Oak Lane,Apt 1806,Yurkivka,,rcowburngl@rambler.ru,7291767363
Cuba,Devpoint,true,15,368 Comanche Lane,Suite 97,Corralillo,,rsnoadgm@google.ru,7441009068
Russia,Oyonder,false,15,580 Corscot Way,PO Box 5008,Novosin’kovo,141896,pdevorillgn@ftc.gov,3298791502
Brazil,Devcast,true,15,03 Hansons Plaza,PO Box 42078,Nepomuceno,37250-000,csilmango@usatoday.com,2113779860
Argentina,Realblab,true,15,663 Nevada Plaza,Room 1543,Patquía,2424,kjuppegp@ask.com,9971567254
China,Edgeify,false,15,170 Brickson Park Pass,Suite 29,Shigu,,dbogaysgq@addtoany.com,3171174677
Philippines,Thoughtmix,false,15,6423 Cottonwood Point,Suite 77,Panan,1105,clayusgr@quantcast.com,2969637053
Indonesia,Flashset,true,15,4753 Harbort Trail,Apt 302,Pinggirsari,,sleangs@fastcompany.com,5178341449
Germany,Trupe,true,15,436 5th Lane,PO Box 64509,Magdeburg,39130,afantonettigt@go.com,9971345105
Indonesia,Realcube,true,15,93 Northview Way,9th Floor,Weton,,vreichhardtgu@163.com,9425140192
China,Quinu,false,15,75 Dovetail Crossing,Room 252,Qingtang,,kchaineygv@tuttocitta.it,5426685258
Colombia,Dablist,true,15,7440 Merry Center,12th Floor,Cali,760050,slylesgw@apple.com,1319544358
Indonesia,Blogpad,true,15,71 Sugar Street,Suite 88,Sumberpandan,,hthurlbournegx@marketwatch.com,4323497749
South Africa,Browsecat,false,15,89 Everett Street,PO Box 53034,Vanderbijlpark,1916,rbedsongy@cafepress.com,8901225539
China,Twitternation,false,15,33296 Morning Parkway,Suite 62,Jiangxi,,dlukovicgz@google.cn,2736168753
Finland,Livetube,false,15,81447 Bashford Plaza,Suite 69,Varkaus,78900,cstickelsh0@sogou.com,1921241759
China,Rhycero,false,15,3050 Stang Circle,Suite 56,Gujun,,kfoggoh1@msn.com,3016023587
Portugal,Thoughtbeat,false,15,940 Dawn Way,Suite 34,Estoril,2765-184,zaleksashinh2@bizjournals.com,1253219853
Bulgaria,Buzzdog,false,15,000 Meadow Ridge Alley,Room 983,Ruse,7000,loriginh3@constantcontact.com,6102869421
Russia,Linktype,false,15,21332 Becker Alley,Room 994,Cheremnoye,659029,rscowenh4@un.org,5923430790
Russia,Teklist,false,15,2 Northport Court,Suite 58,Smolyaninovo,692831,pcorrish5@cbslocal.com,4221064228
Ukraine,Muxo,true,15,48 Moose Trail,Apt 902,Boromlya,,akerseyh6@loc.gov,5378504187
Reunion,Photobug,false,15,71803 Marcy Park,Apt 1306,Saint-Denis,97487 CEDEX,pgilkisonh7@zimbio.com,5221125409
Indonesia,Pixonyx,true,15,6 Stuart Plaza,Apt 834,Tarub,,ntytlerh8@dion.ne.jp,2003746675
Vietnam,Dablist,false,15,38220 Ridge Oak Alley,Suite 9,Trảng Bàng,,kcurroh9@eventbrite.com,6376761378
China,Rhyzio,true,15,7539 Mesta Way,Suite 68,Dongtucheng,,kvettoreha@rakuten.co.jp,7908533649
China,Twitterworks,false,15,44480 Jackson Alley,Room 1811,Banxi,,wmeneelyhb@cargocollective.com,6188258942
Botswana,Youtags,false,15,5986 Forest Dale Road,PO Box 12457,Mathambgwane,,ogreenwayhc@timesonline.co.uk,6244887798
Indonesia,Kanoodle,true,15,7 Kenwood Center,Apt 1927,Sumberkrajan,,nheskinshd@comsenz.com,8634220638
Indonesia,Kimia,true,15,8835 Westport Crossing,Apt 509,Cimuncang,,etophamhe@engadget.com,2116329218
Czech Republic,Lajo,true,15,0313 Grim Park,PO Box 32125,Darkovice,747 17,mciccarellohf@pagesperso-orange.fr,3742938956
Afghanistan,Babbleset,true,15,8858 Artisan Pass,PO Box 71564,Ghormach,,cbateriphg@nbcnews.com,6412291397
China,Yabox,false,15,2036 Thompson Plaza,Suite 23,Beizhang,,ologesdalehh@netscape.com,6162460372
Japan,Viva,true,15,77 Pierstorff Road,7th Floor,Ryōtsu-minato,952-3421,gleiskhi@businessweek.com,5992247035
Indonesia,Tagopia,true,15,6198 Chinook Point,Room 1682,Puutuga,,kpryorhj@dailymotion.com,3131514237
China,Feedspan,false,15,575 Milwaukee Avenue,PO Box 78603,Huangfang,,nnowillhk@typepad.com,8696014116
Colombia,Dabtype,true,15,10876 Hansons Drive,Apt 928,Chigorodó,057418,thudlestonhl@biglobe.ne.jp,5487679627
Czech Republic,Twitternation,true,15,1 Melby Lane,Room 1945,Jistebnice,391 33,bennionhm@google.com.hk,3494700117
Poland,Quinu,true,15,5 Surrey Circle,PO Box 47881,Głogówek,48-250,tdjokichn@spiegel.de,8167351890
China,Katz,true,15,592 3rd Circle,16th Floor,Shiniu,,ahardcastleho@cpanel.net,4608639177
Albania,Devcast,false,15,9 South Place,11th Floor,Kurbnesh,,lwithnallhp@miitbeian.gov.cn,3445177936
Brazil,Dabshots,true,15,261 Nova Parkway,PO Box 77028,Anápolis,75000-000,sreubelhq@eventbrite.com,5736351423
Iran,Centimia,true,15,5 Redwing Alley,Room 664,Shāhīn Dezh,,cchastanhr@csmonitor.com,5218212766
Indonesia,Abata,false,15,38108 Twin Pines Alley,18th Floor,Munggang,,ifitzalanhs@weebly.com,8624179718
Russia,Chatterbridge,false,15,2 Lyons Junction,Apt 1163,Pizhanka,613380,mshawellht@hatena.ne.jp,7683127444
China,Shuffledrive,false,15,4151 Main Circle,Apt 626,Rongxi,,lnansomhu@biglobe.ne.jp,5874399349
Portugal,Feedspan,true,15,8646 Summerview Terrace,Apt 381,Figueira,8650-153,zemmatthv@mit.edu,5267019228
China,Miboo,false,15,782 Oneill Terrace,PO Box 30898,Zhenxing,,bcreerhw@businessinsider.com,1588071683
Poland,Yadel,false,15,894 Tony Way,Suite 100,Pysznica,37-403,cunderwoodhx@phpbb.com,7734404568
Indonesia,Kwilith,false,15,4 Division Trail,Suite 26,Karangbadar Kidul,,rjacoxhy@opera.com,7659304407
Czech Republic,Wikizz,false,15,26484 North Lane,Suite 6,Dýšina,330 02,pdorlinghz@rambler.ru,1142872827
China,Skiptube,false,15,9 Del Sol Terrace,PO Box 64660,Bifeng,,bshelbournei0@dropbox.com,1738204454
Indonesia,Wikivu,true,15,37781 Mosinee Point,Room 407,Juranalas,,gpeoplei1@army.mil,9829573636
Lithuania,Twitterbeat,true,15,7426 Pine View Court,Suite 11,Kėdainiai,57005,eislandi2@oakley.com,5415445742
Jamaica,Meevee,false,15,6 Hayes Street,PO Box 22690,Chapelton,,bmccritchiei3@gmpg.org,9153439708
Indonesia,Zoomlounge,true,15,94 Charing Cross Terrace,12th Floor,Oganlima,,echilesi4@icq.com,5649510888
China,Realcube,false,15,37 Bowman Circle,Apt 213,Hongguang,,hmcwhini5@bloomberg.com,5409088636
China,Meeveo,true,15,65 Raven Point,Room 1738,Wuma,,doglassanei6@goo.ne.jp,8753563015
Russia,Gabspot,true,15,80 Anderson Drive,Suite 49,Ussuriysk,356532,rfilochovi7@ebay.co.uk,8143841187
China,Thoughtworks,true,15,82 Karstens Hill,Suite 74,Zhishan,,alouwi8@jalbum.net,7856561629
Netherlands,Wikizz,false,15,33 Hansons Park,6th Floor,Almere Stad,1304,tvallancei9@ihg.com,6833437165
Mexico,Linkbuzz,false,15,9421 Crownhardt Point,Room 1354,Guadalupe Victoria,93856,loslaria@yellowbook.com,9038378722
Serbia,Topicware,true,15,8799 Hoard Lane,Room 1635,Niška Banja,,hspinksib@si.edu,9195233731
Finland,Talane,true,15,87002 Killdeer Avenue,8th Floor,Replot,94830,aspataroic@hud.gov,1843482261
Philippines,Rhynoodle,false,15,33 Ruskin Crossing,Apt 351,Tiblawan,3503,cvedeshkinid@myspace.com,5847792079
Brazil,Yadel,false,15,5894 Hoard Point,Apt 239,São Bento,58865-000,etregunnaie@apache.org,1954469557
China,Buzzdog,false,15,20 Spaight Center,Room 36,Yuanquan,,rduffillif@domainmarket.com,8756664758
Canada,Tavu,true,15,3383 Johnson Junction,Apt 1795,Saint Andrews,E5B,egoldenig@reuters.com,2919248680
Poland,Jabbercube,false,15,884 Myrtle Way,PO Box 27852,Nowe Brzesko,32-120,hhallumsih@youtu.be,8317293890
China,Roombo,true,15,9797 Warner Street,Room 1031,Shangchewan,,mmurtyii@simplemachines.org,8628086690
Indonesia,Zooveo,true,15,494 Corben Trail,PO Box 65775,Kuncen,,llightbournij@godaddy.com,9871304135
Thailand,Plajo,true,15,140 1st Way,Apt 904,Ban Chalong,66110,jlaweeik@liveinternet.ru,7966990903
China,Roombo,true,15,3 Jana Road,16th Floor,Shuangxing,,gworthingil@netvibes.com,2538129191
Philippines,Yodoo,false,15,2 Pond Lane,Suite 21,Nangka,1808,tengelim@blog.com,3002763782
Philippines,Brightdog,true,15,88975 Pond Way,PO Box 37545,Piña,3600,jhorickin@cnet.com,2547846209
Portugal,Realfire,false,15,19 Monterey Trail,Suite 84,Calvário,4820-449,rbatrimio@reuters.com,2174999613
China,Fivebridge,true,15,87 Morningstar Parkway,Apt 1825,Huangjindong,,mpetytip@hugedomains.com,6788740231
China,Jetwire,false,15,9615 1st Crossing,Room 1561,Shuren,,gkarpoviq@aboutads.info,6644557871
Russia,Livefish,true,15,5 Haas Trail,Apt 927,Yanino Vtoroye,188680,sygoir@go.com,8525819628
China,Quimm,false,15,37 Eastwood Terrace,PO Box 55016,Zizhao,,cmapowderis@plala.or.jp,4082357676
China,Brainsphere,true,15,64 Golf Course Point,19th Floor,Chuanpu,,rsartonit@ask.com,2522947574
China,Wikivu,true,15,89 Burrows Road,17th Floor,Jiangshi,,msowerbyiu@huffingtonpost.com,4347846548
Indonesia,Meejo,false,15,9 Jana Alley,Apt 1296,Terang,,awrinchiv@apache.org,3425849015
Greece,BlogXS,false,15,1 Springs Way,13th Floor,Karátoulas,,dpowysiw@redcross.org,9423864087
China,Riffpath,true,15,6 Waxwing Junction,Apt 1042,Dianbu,,cthoresbyix@prnewswire.com,4391688676
China,Vipe,false,15,6961 Cherokee Road,Room 1321,Nanping,,eclewloweiy@businessweek.com,2158851250
Uruguay,Wikizz,false,15,3 Logan Circle,Suite 32,Durazno,,mrennardiz@arstechnica.com,8226574389
Netherlands,Dabjam,false,15,0430 Lawn Trail,9th Floor,Woerden,3449,tmacknishj0@paginegialle.it,5638450141
China,Skipstorm,false,15,95438 Larry Park,Suite 10,Xiaotang,,bcammackj1@washington.edu,6912728078
Portugal,Agimba,true,15,7867 Hauk Trail,Suite 60,Algoz,8365-059,alenahanj2@miibeian.gov.cn,8666102071
Philippines,Chatterpoint,false,15,3060 Clove Way,Room 1729,Badian,6011,lmarstonj3@latimes.com,8032287494
China,Edgetag,true,15,79225 Larry Junction,Suite 73,Hexi,,sstarzakerj4@tmall.com,3261744149
Yemen,Rhyloo,false,15,40366 Killdeer Junction,Room 1134,Mūdīyah,,dcollifordj5@usgs.gov,6353315476
Argentina,Yacero,false,15,21 Hauk Court,Room 1491,Hernández,3156,mordishj6@canalblog.com,1748994625
France,Buzzshare,true,15,532 Golden Leaf Crossing,PO Box 43611,Rungis,94636 CEDEX 1,cdefreitasj7@cocolog-nifty.com,2212193726
Indonesia,Mita,true,15,66067 Talisman Court,Apt 123,Kapasan,,jplumsteadj8@nifty.com,5504117495
Poland,Quinu,true,15,90610 Shelley Center,Suite 11,Brudzeń Duży,09-414,bdavsleyj9@fastcompany.com,2015398947
Afghanistan,Tagfeed,true,15,83743 Swallow Place,Apt 1940,Sangar Sarāy,,kfontellesja@netscape.com,4766704668
Ukraine,Eimbee,true,15,49874 Schlimgen Place,Suite 47,Klembivka,,pgaudinjb@bravesites.com,4744404063
East Timor,Mudo,true,15,2 2nd Terrace,Apt 996,Same,,ccorderoyjc@bigcartel.com,8819741436
Indonesia,Eire,false,15,58 Westport Pass,PO Box 17119,Cibebek,,htiplingjd@reference.com,3276235786
China,Oozz,false,15,984 Daystar Circle,Apt 74,Renhe,,neggarje@census.gov,2916229182
Greece,Skalith,false,15,7345 Truax Avenue,Apt 1596,Níkiti,,folandajf@vkontakte.ru,2289262541
Czech Republic,Blogspan,true,15,6 Oak Center,15th Floor,Stráž,430 01,narmstrongjg@bbc.co.uk,1786760533
Russia,Wordtune,false,15,1 Rowland Point,Suite 40,Dubki,368117,usemkinsjh@multiply.com,6758732067
Sweden,Photobug,false,15,3152 Briar Crest Drive,PO Box 74217,Solna,171 94,ehagwoodji@linkedin.com,3564119258
China,Aivee,true,15,55 Marcy Hill,Room 1397,Pingpu,,dcreesejj@newyorker.com,8726100630
China,Thoughtbridge,true,15,997 Mockingbird Avenue,Apt 558,Kupu,,kwinmilljk@mit.edu,4232909117
Poland,Gabtype,true,15,558 Waubesa Court,Room 1417,Mikstat,63-510,crydzynskijl@china.com.cn,7544314090
China,Devshare,true,15,9 Prairie Rose Terrace,PO Box 86533,Houzhai,,msaurinjm@lulu.com,9025900043
Belarus,Photobug,true,15,167 Lunder Road,PO Box 61665,Dzyatlava,,hcatonjn@cnn.com,2848990296
Portugal,Dabvine,false,15,45309 Hoepker Plaza,PO Box 53855,Vila Nova,4710-627,dleaveyjo@delicious.com,6483685151
Indonesia,Muxo,true,15,065 Hermina Alley,17th Floor,Krajan Battal,,jmcgarahanjp@stumbleupon.com,5173773700
Cayman Islands,Browsecat,false,15,2070 Cascade Crossing,PO Box 47113,North Side,,fhibbartjq@earthlink.net,6224160830
China,Avaveo,false,15,7515 Delladonna Circle,15th Floor,Chengzhong,,gjamrowiczjr@psu.edu,3485697138
Argentina,Dabshots,true,15,5178 Cordelia Alley,15th Floor,Arauco,5311,bperringjs@nbcnews.com,8923172474
Russia,Demimbu,true,15,16820 Porter Junction,PO Box 36093,Zaprudnya,141960,clathomjt@intel.com,3755407691
Russia,Dablist,true,15,058 Gina Terrace,Apt 176,Sulak,427030,stintoju@virginia.edu,1259704217
China,Kayveo,true,15,64 Main Park,Room 1812,Xiongbei,,spickerinjv@domainmarket.com,5459721109
China,Feednation,true,15,256 Independence Pass,7th Floor,Yishan,,kfeltoejw@ucsd.edu,8429683297
Japan,Jabberbean,true,15,41275 Browning Street,PO Box 70883,Shiozawa,989-0842,bmacavddyjx@npr.org,8635424085
China,Abatz,false,15,57 Lien Road,Suite 46,Dazhan,,gmalletrattjy@chicagotribune.com,7983634293
South Africa,Centizu,true,15,17698 Hanover Way,Room 1992,Parys,9585,abedderjz@auda.org.au,4704132517
Sudan,Youbridge,false,15,1028 Melody Street,Apt 1693,Talodi,,cbeminsterk0@umn.edu,8871333236
Brazil,Skyble,false,15,5 Union Terrace,PO Box 32576,Brejo da Madre de Deus,55170-000,iblunnk1@hud.gov,1234056902
Czech Republic,Photojam,true,15,4752 Meadow Ridge Court,PO Box 3045,Frýdek-Místek,733 01,pwhistancek2@shutterfly.com,5877910806
China,Thoughtstorm,false,15,8 Twin Pines Parkway,PO Box 21942,Jiukou,,tdaousek3@latimes.com,6287241624
Indonesia,Blogspan,false,15,690 Prairie Rose Alley,Apt 1825,Rora Timur,,bcarmichaelk4@alexa.com,6403127514
Indonesia,Meetz,false,15,66452 Shelley Crossing,Apt 1061,Sukorejo,,enortunenk5@soup.io,4619551192
Thailand,Ntags,true,15,55 Stephen Avenue,Apt 519,Ban Dan,31000,gbockmannk6@pcworld.com,5837705041
Portugal,Vinder,true,15,50 Doe Crossing Street,PO Box 73869,Bairros,4785-512,esanfordk7@miibeian.gov.cn,3283694314
Indonesia,Yodoo,true,15,04 Atwood Avenue,Apt 1623,Pasirpanjang,,bstlouisk8@bloomberg.com,8774757220
France,Skinix,false,15,62 Autumn Leaf Lane,Apt 1368,Roissy Charles-de-Gaulle,95761 CEDEX 1,bmackillk9@wikimedia.org,4137133910
Ukraine,Topicstorm,false,15,701 Sachtjen Avenue,9th Floor,Krasnopillya,,ceastupka@google.ca,8558228760
China,Oodoo,true,15,3 Del Mar Center,9th Floor,Chenyang,,ehadlandkb@wordpress.org,1604928625
Philippines,Skippad,true,15,31 Fuller Pass,Suite 75,Abucay,2114,cbentallkc@youtube.com,5247580409
Ukraine,Photospace,false,15,1 Gerald Trail,Suite 76,Dnipryany,,dlowseleykd@lycos.com,4141101650
China,Latz,true,15,23 Vidon Hill,Apt 44,Jingling,,ibalmerke@msu.edu,5048519672
France,Roombo,false,15,00230 Rockefeller Center,Apt 1545,Paris 15,75712 CEDEX 15,jlambartkf@themeforest.net,2902411307
Bahamas,Digitube,false,15,919 Hollow Ridge Drive,Suite 55,Arthur’s Town,,sbourchierkg@topsy.com,3472339192
Vietnam,Zoonoodle,false,15,040 Redwing Pass,Suite 33,Thị Trấn Yên Cát,,msartenkh@redcross.org,5401186164
United States,Tambee,false,15,83 Banding Crossing,Apt 519,Santa Rosa,95405,ktuleyki@who.int,7079743461
Indonesia,Fanoodle,true,15,40876 Sunfield Avenue,Apt 185,Cipari Satu,,rcoggankj@home.pl,2369730763
Saint Kitts and Nevis,Mynte,false,15,600 Johnson Point,Suite 39,Basseterre,,rmacnaughtonkk@auda.org.au,6061036570
France,Oyoyo,false,15,3 Tennyson Plaza,Apt 1244,Paris 02,75104 CEDEX 02,bsypluskl@macromedia.com,2931470376
Japan,Gigabox,false,15,644 Monica Alley,Suite 26,Kariya,969-1619,pgilfillankm@tinyurl.com,8676026092
China,Realcube,false,15,068 Lawn Plaza,Apt 77,Pudong,,ldinegeskn@fastcompany.com,3175963874
Dominican Republic,Wordify,true,15,769 Blaine Plaza,Apt 1098,Las Matas de Santa Cruz,10507,ndowleyko@netlog.com,2069135869
Indonesia,Mydeo,true,15,225 David Alley,Room 991,Banjar Jambe Baleran,,wgillottkp@si.edu,1575975180
San Marino,Demizz,false,15,71 Delaware Point,PO Box 15276,Serravalle,47899,krubertellikq@uol.com.br,3635229637
Russia,Livepath,false,15,22389 Nova Crossing,Suite 61,Uvarovo,393479,rsteagallkr@google.fr,3673554989
Poland,Feedmix,true,15,184 Truax Alley,PO Box 23727,Nowy Dwór Gdański,82-100,dfulstowks@myspace.com,1538837175
Syria,Vitz,false,15,827 Riverside Hill,Room 289,Al Ya‘rubīyah,,rdufourkt@cafepress.com,6996344945
Brazil,Eayo,true,15,286 Bartelt Lane,Apt 1707,Barbacena,36200-000,tjuggingku@hatena.ne.jp,8059056173
China,Fiveclub,true,15,73830 Mendota Plaza,8th Floor,Kuilehe,,agittenskv@netscape.com,2335000845
Indonesia,Meedoo,false,15,066 Rutledge Junction,PO Box 84959,Sorodot,,ostriblingkw@google.co.uk,4809225493
Portugal,Zoovu,true,15,23697 Oriole Alley,8th Floor,Vila Verde,4560-221,jprovenkx@usa.gov,8861589315
Indonesia,Camido,true,15,143 Gale Drive,Suite 29,Kelungkung,,rwadhamky@people.com.cn,4825459180
China,Zooxo,false,15,6 Claremont Trail,PO Box 47110,Xihongmen,,rbarnwellkz@ucoz.com,5764172995
Hungary,Quamba,true,15,0 Oakridge Court,Suite 76,Debrecen,4029,ojoistl0@ow.ly,4986474373
Canada,Fatz,true,15,9 Little Fleur Crossing,8th Floor,Lumby,P7L,kvasilovl1@technorati.com,8963104063
Philippines,Edgeclub,false,15,0 Pond Center,PO Box 88695,Manika,7005,rmcdowalll2@phoca.cz,5208775584
Portugal,Oyoloo,true,15,7289 Judy Park,4th Floor,Cancela,4960-320,rbutenl3@google.es,2016628033
China,Yodo,true,15,11 Waywood Circle,13th Floor,Hengdian,,rmiltonl4@nps.gov,9242784672
China,Voomm,true,15,331 Loftsgordon Park,PO Box 83831,Tacheng,,gperkinsl5@nifty.com,9097120351
Philippines,Mycat,true,15,86 Crest Line Court,PO Box 26823,Caronoan West,5420,jpinkettl6@netscape.com,8271793003
Indonesia,Twitterbridge,true,15,442 Nova Street,Apt 1230,Cikandang,,zcaddiel7@yellowbook.com,5696689034
Philippines,Bubbletube,true,15,5127 Alpine Court,Suite 69,Sigma,5816,renderwickl8@engadget.com,7285032468
United States,Cogidoo,true,15,584 Springs Way,Suite 82,Fresno,93762,vwarsopl9@mtv.com,3108131047
China,Latz,false,15,057 Atwood Alley,PO Box 60417,Gaopai,,kfurneauxla@mlb.com,6495116457
Dominican Republic,Rhycero,false,15,4218 Montana Circle,8th Floor,Santo Domingo Este,11806,cblackahlb@chron.com,1459834453
Sweden,Tazzy,false,15,52884 Petterle Alley,Apt 1166,Kalmar,391 84,ajolllc@elegantthemes.com,5862058393
Panama,Yodo,false,15,72 Lerdahl Circle,Apt 1463,Guabito,,vsturneyld@berkeley.edu,8361087005
China,Plajo,false,15,9359 Bayside Road,PO Box 7076,Guluoshan,,gallderle@diigo.com,7589206779
Colombia,Wordify,false,15,65599 Marcy Crossing,16th Floor,Marinilla,054028,nhusonlf@ed.gov,1639888281
Russia,Layo,false,15,5 Cottonwood Pass,17th Floor,Neftekamsk,452696,tjoskowitzlg@about.com,2194715629
Croatia,Thoughtsphere,true,15,9852 Bartillon Terrace,PO Box 46244,Bilice,34310,kperillolh@smh.com.au,8726435533
Thailand,LiveZ,true,15,55 Fisk Park,Apt 470,Phra Phrom,80000,awholesworthli@go.com,2274965685
Portugal,Kazu,false,15,8439 Luster Court,Apt 1848,Quintã,4620-729,agannonlj@va.gov,4479591234
Guatemala,Reallinks,true,15,55950 Northwestern Pass,Apt 148,Yupiltepeque,22006,mandrisslk@edublogs.org,2716260918
Indonesia,Rooxo,true,15,7 Schmedeman Trail,2nd Floor,Pisan,,gboundll@hexun.com,2272035308
China,Avaveo,false,15,888 Kensington Plaza,Apt 771,Zaoxi,,fmunginlm@123-reg.co.uk,3451094938
Argentina,Skipfire,false,15,1880 Crownhardt Junction,Suite 9,Marcos Juárez,2580,rwheelhouseln@dropbox.com,4785367186
Russia,Kanoodle,true,15,57158 Kim Road,Apt 334,Paratunka,659642,jnovaceklo@ebay.co.uk,7014488904
Kazakhstan,Aibox,true,15,89681 Shoshone Plaza,PO Box 43961,Baykonyr,,rvanyashinlp@google.de,1962982678
United States,Eadel,false,15,9 Vernon Court,Suite 81,Billings,59112,rbramblelq@rakuten.co.jp,4064337720
China,Skiba,true,15,1 La Follette Parkway,Apt 1725,Zhouzai,,caucourtelr@bravesites.com,5425266172
Philippines,Jamia,true,15,3 Northview Plaza,Suite 97,Odiong,5616,hrobsonls@quantcast.com,6316669173
Indonesia,Centizu,false,15,0816 West Terrace,3rd Floor,Sumbersarikrajan,,ddivelllt@booking.com,1682080875
Mexico,Kwideo,true,15,92886 Blackbird Road,Suite 87,Lazaro Cardenas,55407,abruhnsenlu@simplemachines.org,1541628123
Indonesia,Flashdog,true,15,665 Fuller Park,PO Box 6411,Ndano,,pfretwelllv@wordpress.com,9047993158
France,Skimia,false,15,51756 Mcguire Alley,Suite 67,La Rochelle,17014 CEDEX 1,eworselllw@jugem.jp,7609981362
Peru,Yadel,true,15,138 Shasta Alley,Apt 536,San Antonio,,rallchornlx@dagondesign.com,6999519135
China,Quatz,true,15,49026 Prentice Crossing,Room 421,Shuozhou,,vvlasenkoly@discuz.net,4867750550
Cyprus,Eidel,false,15,79833 Pond Pass,13th Floor,Larnaca,,lwaterdrinkerlz@sciencedirect.com,2848711709
Philippines,Flashdog,true,15,2960 Gateway Terrace,PO Box 64637,Padre Burgos,6602,wballinghallm0@twitter.com,6028020706
Paraguay,Realbuzz,false,15,2 Gerald Road,Suite 59,Itacurubí del Rosario,,bmorillam1@ow.ly,3079704056
United States,Trilia,false,15,0609 Graedel Road,5th Floor,Long Beach,90831,begdalm2@shareasale.com,5622905911
China,Gigaclub,false,15,897 Village Street,PO Box 25998,Dongzhang,,igillim3@yelp.com,2392490382
Georgia,Vinder,false,15,723 Nancy Park,PO Box 36601,T’ianet’i,,aascroftem4@washingtonpost.com,4084391659
Ukraine,Trilith,false,15,9178 Spohn Avenue,Apt 826,Molodizhne,,dpawlowiczm5@webs.com,5562660621
Japan,Realfire,true,15,0604 Muir Park,Room 1565,Yamagata-shi,990-2412,cblondelm6@soundcloud.com,1273614735
China,Brightdog,true,15,51 Randy Crossing,PO Box 34525,Youchou,,hblawm7@bandcamp.com,6129254667
France,Dynabox,true,15,8 Moose Lane,Room 968,Landivisiau,29404 CEDEX,pdecastelainm8@ow.ly,7633924631
Sweden,Shufflester,false,15,7725 Eastlawn Park,5th Floor,Nykvarn,155 33,aspriggsm9@mozilla.com,1185770907
Philippines,Rhyloo,true,15,7 Anniversary Pass,5th Floor,Saguiaran,9701,ypesterma@springer.com,9461621889
Iran,Twinte,true,15,00 Lerdahl Trail,Suite 50,Bandar-e ‘Asalūyeh,,lsommerlymb@disqus.com,6794292536
Morocco,Eidel,false,15,50 Portage Court,PO Box 40598,Tidili Mesfioua,,sdollarmc@who.int,7382203879
United Arab Emirates,Flipopia,false,15,1571 Chive Way,3rd Floor,Al Ain,,jkantermd@livejournal.com,1712730314
Serbia,Lazz,true,15,2 Bellgrove Place,19th Floor,Smederevo,,oprophetme@jimdo.com,2493300508
Greece,Skiba,false,15,954 Burrows Circle,12th Floor,Pentaplátano,,deasdonmf@e-recht24.de,2515023138
Poland,Thoughtbridge,true,15,41 Westend Drive,19th Floor,Dobczyce,32-410,bvirgomg@amazonaws.com,9728007517
China,Shufflester,false,15,11556 International Trail,18th Floor,Dayang,,etaptonmh@surveymonkey.com,4869107369
China,Twitternation,true,15,2 Delladonna Circle,Room 1806,Kan,,mbardaymi@dropbox.com,6482395915
Serbia,Voomm,false,15,793 Mockingbird Pass,PO Box 91045,Gornji Breg,,acumminsmj@springer.com,1481554678
Indonesia,Fliptune,false,15,431 Banding Place,Suite 47,Banjar Dauhpura,,mlubertomk@xinhuanet.com,7919136872
Poland,Fivebridge,false,15,7 Graceland Road,Suite 31,Kraków,31-999,dborastonml@biglobe.ne.jp,3157156307
Greece,Brightdog,true,15,1 Dorton Lane,PO Box 60858,Polykárpi,,eskechleymm@latimes.com,8208631152
Egypt,Realmix,true,15,06 Mendota Lane,Room 102,Diyarb Najm,,kluckettmn@sun.com,9194752618
Japan,Vitz,true,15,25093 Merrick Hill,Apt 1773,Mizunami,957-0048,gchrestienmo@squarespace.com,3078593492
Taiwan,Wikivu,true,15,9 Menomonie Center,Apt 427,Fengyuan,,aphilimoremp@livejournal.com,7152335241
Poland,Devshare,true,15,7002 Merrick Park,Suite 16,Osielec,34-234,shudspithmq@eepurl.com,6912619104
Philippines,Yakitri,false,15,40 Crescent Oaks Court,PO Box 23129,Bolong,5001,krochmr@vinaora.com,3099653142
Brazil,Devify,false,15,589 Redwing Hill,Room 765,João Pessoa,58000-000,wcohrsms@engadget.com,7676710278
China,Rhyloo,true,15,92294 Stuart Terrace,Suite 90,Zhougao,,fcapehornmt@nbcnews.com,3114142451
Indonesia,Kamba,true,15,10 Butterfield Avenue,Apt 1449,Waiklibang,,atolumellomu@vistaprint.com,3341173073
Kyrgyzstan,Skimia,true,15,5 Clove Drive,Apt 900,Ivanovo-Alekseyevka,,tacombmv@foxnews.com,3801036930
France,Skibox,false,15,5 Moose Parkway,PO Box 77728,Nanterre,92727 CEDEX,llowlesmw@trellian.com,3574645612
Armenia,Eabox,true,15,26 Colorado Circle,3rd Floor,Hoktember,,gmacgillacolmmx@ning.com,5746695643
Brazil,Jatri,true,15,0683 Caliangt Road,Room 107,São João da Barra,28200-000,wmawsonmy@indiatimes.com,7791644715
Poland,Flipopia,false,15,136 Corry Trail,12th Floor,Prochowice,59-230,paitchinsonmz@dyndns.org,1202133733
China,Topicstorm,true,15,1747 Kennedy Street,Suite 61,Nailung,,delstubn0@tmall.com,2224091694
Tajikistan,Quinu,false,15,50332 Kedzie Pass,PO Box 98244,Vahdat,,mclimancen1@omniture.com,6238994774
Philippines,Jaxspan,true,15,988 Helena Trail,PO Box 60323,Katuli,4212,achatwoodn2@ehow.com,8858726992
Portugal,Bubblebox,false,15,60 Pawling Place,PO Box 30469,Gândara de Aquém,2425-445,tduttonn3@cnbc.com,2461246656
China,Digitube,true,15,01 Heath Hill,18th Floor,Lingcheng,,cgarvien4@cyberchimps.com,7683695485
Sweden,Brainbox,true,15,33124 Westerfield Road,Room 1034,Alingsås,441 17,jstickfordn5@cnbc.com,7633725089
Indonesia,Minyx,false,15,42 Acker Road,Room 341,Permas,,mbacksaln6@deliciousdays.com,5709390045
Japan,Wordware,false,15,08 Bultman Center,4th Floor,Kawaguchi,999-5203,cweinen7@prlog.org,5154748208
Russia,Quinu,false,15,65204 Hauk Lane,Room 637,Imeni Babushkina,161350,lbukowskin8@stumbleupon.com,9662630860
Indonesia,Cogibox,true,15,36696 Prairieview Court,5th Floor,Kapunduk,,emacterrellyn9@dailymotion.com,1422968854
France,Oyonder,false,15,80556 Knutson Terrace,PO Box 55853,Lescar,64234 CEDEX,srevelna@yellowbook.com,9483956362
China,Tagcat,false,15,3 Eastlawn Hill,Room 1445,Xintun,,grehoreknb@japanpost.jp,3615433017
Nicaragua,Lazzy,false,15,565 Merry Drive,Room 1381,Laguna de Perlas,,kolwennc@nationalgeographic.com,2579762594
China,Mycat,true,15,93 Gale Way,Room 1499,Lenghu,,dhouseleend@cocolog-nifty.com,4373376081
Indonesia,Fivebridge,false,15,07034 Morrow Crossing,PO Box 44095,Noebana,,ckochsne@uol.com.br,2524002047
China,Meetz,true,15,3 Artisan Place,Apt 226,Hema,,oculhamnf@example.com,6771950224
Indonesia,Buzzshare,false,15,067 Jackson Crossing,2nd Floor,Cipatat,,sgilliverng@fema.gov,3917484054
China,Chatterpoint,true,15,07238 Saint Paul Pass,Suite 96,Xinhua,,pgoodounenh@apache.org,6158693143
Syria,Wordware,true,15,60 Homewood Place,PO Box 42477,Al Fākhūrah,,flardierni@nymag.com,6611945508
Poland,Youtags,true,15,988 Welch Alley,Room 1857,Dziemiany,83-425,lfletchernj@engadget.com,2889791350
Honduras,Photospace,false,15,10320 Ridgeview Park,Room 682,San Jerónimo,,cburnenk@dagondesign.com,9048337263
Indonesia,Jabberstorm,false,15,452 Colorado Pass,4th Floor,Sukorambi,,fhecksnl@purevolume.com,1473180020
Mexico,Devify,true,15,49851 Sunfield Plaza,PO Box 69268,Miguel Hidalgo,87090,ntidballnm@theglobeandmail.com,1413132719
Myanmar,Roodel,true,15,916 Lakeland Junction,PO Box 18708,Maubin,,eaubrunnn@yandex.ru,3194328080
Nigeria,Yodoo,false,15,954 Killdeer Drive,Room 1536,Bugana,,aplacidino@diigo.com,4145479186
Japan,Mydeo,true,15,8 East Avenue,Apt 1500,Furukawa,963-8823,marboinnp@people.com.cn,2977155977
Greece,Avamba,false,15,46681 Gulseth Road,16th Floor,Síkinos,,efeldbaunq@imdb.com,2554715170
Brazil,Voomm,false,15,831 Golf Course Lane,Apt 717,Itapetininga,18200-000,rjeenesnr@cornell.edu,6339987943
United States,Tekfly,true,15,4097 Donald Plaza,Room 100,New York City,10060,wkirragens@google.com.au,6466453610
France,Twinder,false,15,70452 Blue Bill Park Point,PO Box 89350,Le Teil,07404 CEDEX,cgraysmarknt@amazon.de,3469968149
South Korea,Wordtune,false,15,259 Corscot Point,8th Floor,Sangju,,avickerstaffnu@fema.gov,7566194827
Armenia,Ntags,false,15,58358 Mandrake Pass,13th Floor,Lorut,,dhamsleynv@ihg.com,9987660257
Finland,Zoozzy,true,15,353 Heath Point,16th Floor,Kalvola,12640,bdesouzanw@cmu.edu,9624240890
Brazil,Minyx,true,15,3 Jenna Point,PO Box 42418,Aparecida de Goiânia,74900-000,apedlarnx@intel.com,6641873509
Tanzania,Skilith,false,15,3 Mariners Cove Junction,Apt 1578,Mlimba,,bjacobny@unblog.fr,4035153536
Canada,Trilith,false,15,8094 6th Point,Room 721,Mount Pearl,A1N,rbedberrynz@disqus.com,8881834101
China,Topicware,true,15,959 Schurz Court,Apt 233,Langchi,,wingleo0@wisc.edu,8067382692
Poland,Skibox,false,15,4102 Maple Court,Room 201,Czechowice-Dziedzice,43-503,cgladstoneo1@npr.org,1802308186
Indonesia,Roombo,false,15,36139 Menomonie Park,PO Box 99770,Pinggirsari,,mcargillo2@edublogs.org,9286716133
Indonesia,Dynabox,true,15,15 Monica Drive,20th Floor,Sumberbening,,dyoselevitcho3@foxnews.com,6349910004
Malta,Mudo,false,15,0 Fulton Place,Suite 45,Luqa,LQA,beaddyo4@sun.com,6886514582
Poland,Zoonoodle,false,15,878 Sachs Park,Apt 522,Murowana Goślina,62-096,msoffo5@hubpages.com,1419314130
Syria,Voomm,false,15,8458 Reindahl Alley,PO Box 54383,Armanāz,,uturvilleo6@drupal.org,4234463912
Bangladesh,Miboo,true,15,00 Westport Pass,PO Box 57745,Habiganj,7903,krembranto7@vk.com,6895090520
Moldova,Mudo,false,15,8 Fair Oaks Terrace,Apt 880,Dubăsari,MD-3714,rdulantyo8@xrea.com,4754435503
Armenia,Shuffledrive,true,15,246 Continental Way,19th Floor,Surenavan,,tfilipchikovo9@reference.com,9923631666
Nepal,Divanoodle,true,15,7437 Kipling Lane,PO Box 4624,Tulsīpur,,rklemmtoa@cdbaby.com,9993353356
Russia,Youfeed,false,15,14842 Steensland Pass,Room 322,Krasnogvardeyets,102469,dtarquiniob@google.ru,4995130144
Indonesia,Katz,true,15,79604 Dottie Pass,Suite 13,Pule,,vslaymakeroc@1688.com,5368437528
France,Yata,true,15,73 Cambridge Way,Suite 56,Toulouse,31069 CEDEX 7,rhurdisod@epa.gov,4851095752
China,Rhyzio,true,15,3189 Fisk Center,Suite 69,Dongshentou,,lshevelloe@uol.com.br,8567467128
Colombia,Bubblebox,false,15,69 Green Ridge Parkway,PO Box 30419,Puerto Berrío,053428,gcastardof@youtu.be,3047164934
China,Mita,false,15,1772 Grim Alley,PO Box 91159,Jinzao,,ibrandleog@photobucket.com,8759551083
Oman,Avamm,false,15,7 Texas Hill,15th Floor,Bayt al ‘Awābī,,soverilloh@dedecms.com,8206274009
Vietnam,Reallinks,false,15,7517 Katie Parkway,10th Floor,Châu Thành,,aguesfordoi@chron.com,6827222489
China,Realcube,false,15,1 Butternut Terrace,Room 850,Mali,,ecrunkhurnoj@ow.ly,3617022234
Brazil,Divavu,false,15,74 Judy Road,PO Box 91073,Naviraí,79950-000,avannsok@taobao.com,4035605529
Indonesia,Jayo,false,15,41125 Prentice Trail,PO Box 63328,Bader,,wpringleyol@people.com.cn,3004747166
Portugal,Trudoo,false,15,932 Bashford Parkway,PO Box 87175,São Bento,4730-560,syoom@soup.io,5051154302
Philippines,Tagfeed,true,15,42635 Moulton Plaza,Suite 65,Malitubog,9413,sainsleeon@nsw.gov.au,9556665677
Poland,Abatz,false,15,7552 Dakota Plaza,PO Box 27570,Prażmów,80-893,salabastaroo@tiny.cc,4214063405
Afghanistan,Chatterpoint,true,15,6 Tomscot Park,PO Box 30130,Ḩājī Khēl,,ebrundleop@webnode.com,9593854954
Iran,Zooveo,false,15,14 Glendale Place,Room 165,Ravānsar,,djexoq@geocities.com,1233452309
Brazil,Oyoba,false,15,2226 Eggendart Crossing,PO Box 97585,Ribeira do Pombal,48400-000,jlampkeor@globo.com,8094370578
Indonesia,Rhybox,true,15,610 Express Drive,Apt 961,Nunutba,,ldunkirkos@list-manage.com,3879084493
China,Zooveo,true,15,2 Lakewood Gardens Terrace,PO Box 78622,Gongjiahe,,peckhardot@apple.com,8225321136
China,Zoomcast,true,15,9 Atwood Trail,Apt 89,Longwan,,chamsherou@last.fm,2425845014
Malaysia,Layo,false,15,363 Gateway Place,17th Floor,Kuala Lumpur,50566,kbloggettov@chicagotribune.com,4317103986
Sierra Leone,Demivee,true,15,94049 Morrow Center,PO Box 10060,Moyamba,,ecavanow@stanford.edu,7504216393
China,Yabox,true,15,22116 Declaration Park,Room 1285,Jiuheyuan,,pkleinbaumox@cdbaby.com,3337337764
United States,Skippad,true,15,4 Butternut Parkway,PO Box 97541,Torrance,90505,akrinksoy@joomla.org,3106407372
France,Realcube,false,15,97 Reindahl Plaza,Suite 71,Tarbes,65951 CEDEX 9,amaccardoz@feedburner.com,4961525755
China,Eamia,true,15,229 Hanson Point,Room 1669,Efeng,,tcarbryp0@freewebs.com,4853660254
Uzbekistan,Skiba,true,15,1179 Amoth Drive,Suite 81,Toshloq,,toatleyp1@statcounter.com,7277711461
Argentina,Buzzshare,true,15,692 Anzinger Center,12th Floor,El Quebrachal,5101,kmoysep2@xrea.com,1465459988
Portugal,Centimia,true,15,05 Moulton Road,PO Box 99535,Carrazeda de Ansiães,5140-058,aakehurstp3@go.com,7303405849
Poland,Topiczoom,true,15,93 Bluejay Trail,PO Box 53324,Lubasz,64-720,sseacombep4@usgs.gov,6437263772
China,Edgeblab,false,15,9 Stone Corner Point,Room 202,Beiyang,,rstalleyp5@redcross.org,4451381168
Portugal,Edgeify,true,15,765 Comanche Junction,Suite 49,Agra,4705-653,tlaugap6@ucsd.edu,1461828895
Liberia,Riffpedia,false,15,440 Truax Park,Room 783,Monrovia,,gaskewp7@harvard.edu,9844221918
Bulgaria,Wikivu,true,15,96544 Eliot Circle,Room 632,Blagoevgrad,2729,ckadwalliderp8@woothemes.com,8704303057
China,Eadel,true,15,228 Kim Crossing,12th Floor,Shuangyang,,twincep9@ox.ac.uk,1409661438
China,Yodo,true,15,7 Colorado Alley,8th Floor,Houping,,lrodwaypa@abc.net.au,9475764817
Brazil,Photofeed,true,15,813 Stang Place,PO Box 2974,Imperatriz,65900-000,csirmonpb@time.com,3196017274
Namibia,Browsebug,false,15,0191 Beilfuss Terrace,Suite 85,Mariental,,twoodruffpc@webs.com,1349358951
China,Divavu,false,15,93231 Sauthoff Terrace,Suite 14,Daqian,,hflacknellpd@goodreads.com,9825905205
Poland,Eayo,true,15,247 Rusk Junction,Apt 1726,Wysoka,89-320,cteepe@webmd.com,9506914603
Greece,Wikido,true,15,948 3rd Terrace,Suite 76,Prómachoi,,rmerwepf@reverbnation.com,8559691448
Indonesia,Vidoo,false,15,3 Anhalt Alley,Apt 645,Selopuro,,talcottpg@wufoo.com,2251379018
Russia,Riffpedia,false,15,3075 Roxbury Road,Apt 1797,Povarovo,141540,lrubinoviciph@twitter.com,3602735989
Egypt,Brainverse,false,15,134 School Junction,PO Box 97555,Al Minyā,,sonearypi@wordpress.com,4225250562
Malawi,Vinder,true,15,26 Burrows Parkway,6th Floor,Nkhotakota,,dgotchpj@dot.gov,3201829863
France,Linkbridge,false,15,62527 Clemons Lane,11th Floor,Mont-de-Marsan,40013 CEDEX,wmummerypk@cmu.edu,8414690918
Indonesia,Eabox,true,15,38 Lyons Terrace,Suite 53,Pataruman,,bohickeepl@mit.edu,8102780691
Afghanistan,Brainverse,false,15,6311 Sunfield Point,Suite 42,Ghurayd Gharamē,,etwittypm@nhs.uk,9962230857
Japan,Oyoloo,true,15,242 Portage Park,6th Floor,Hino,919-0222,wdeluciapn@si.edu,3199735791
Equatorial Guinea,Innotype,true,15,66862 Ruskin Street,14th Floor,Ebebiyin,,hrumblepo@bravesites.com,9138820150
Brazil,Snaptags,true,15,8061 Service Way,14th Floor,Vazante,38780-000,jfehelypp@netvibes.com,4463013781
Belarus,Mynte,false,15,8835 Homewood Hill,11th Floor,Lyeskawka,,bwilbypq@bravesites.com,2112972967
Philippines,Meevee,true,15,9290 Lerdahl Crossing,9th Floor,Pinaring,1110,gseacroftpr@homestead.com,8831517153
Mexico,Gigabox,true,15,4 Sachtjen Crossing,9th Floor,Buenavista,47216,dstockfordps@netvibes.com,4043518551
Czech Republic,Livefish,false,15,9 Glendale Court,PO Box 47460,Žatec,588 62,aurianpt@shareasale.com,5307054008
China,Skimia,false,15,5 Lindbergh Center,PO Box 83566,Mayingzhuang,,senburypu@deviantart.com,6671675893
Indonesia,Agimba,false,15,935 Comanche Court,Apt 1144,Sindangrasa,,cgeanypv@1688.com,3433242160
Brazil,Yata,true,15,2 Nancy Drive,Room 1373,Caçador,89500-000,spickburnpw@abc.net.au,4372741264
Philippines,Roodel,true,15,6 Ronald Regan Road,Room 900,Vizal San Pablo,3010,uspringettpx@cargocollective.com,3025356362
Russia,Fliptune,false,15,079 Comanche Drive,6th Floor,Krasnolesnyy,394080,tannesleypy@unesco.org,7552959866
Indonesia,Jabbersphere,true,15,09984 Donald Park,Suite 58,Culeng,,vmcgeownpz@lulu.com,1103607726
Philippines,Midel,false,15,27613 Algoma Court,Suite 84,Basing,2417,zlovstromq0@wsj.com,6112625197
Japan,Gigaclub,true,15,36122 Corscot Avenue,Apt 1601,Handa,945-0812,hbalaamq1@google.com.hk,5817498591
United States,Cogidoo,false,15,0 Hoffman Avenue,PO Box 26376,Fort Lauderdale,33345,bcrightenq2@odnoklassniki.ru,7545496986
Belarus,Devify,false,15,5 Buell Terrace,Room 1532,Palykavichy Pyershyya,,rtiernanq3@marketwatch.com,5069322853
France,Edgepulse,false,15,4 Wayridge Drive,PO Box 32997,Lyon,69446 CEDEX 03,gsamworthq4@cornell.edu,4596945291
Bangladesh,Trudeo,true,15,5 Fairfield Terrace,Suite 57,Chittagong,4000,pcettellq5@icio.us,9421613533
Poland,Yambee,false,15,8949 Londonderry Drive,16th Floor,Kołbaskowo,72-001,botleyq6@diigo.com,5318842810
Nicaragua,Leexo,true,15,25459 Bashford Alley,4th Floor,Valle San Francisco,,mlescopq7@acquirethisname.com,5313551010
France,Oozz,false,15,273 Butternut Road,Apt 833,Montesson,78364 CEDEX,akesperq8@apache.org,9192370157
Czech Republic,Twinder,false,15,102 Monterey Avenue,Suite 42,Český Těšín,737 01,jsimmanceq9@etsy.com,4344473016
China,Dynabox,false,15,270 Clarendon Pass,10th Floor,Mianhu,,qryeqa@shop-pro.jp,8138314247
Philippines,Dablist,true,15,25726 Nova Street,Suite 57,Gines-Patay,1121,sivieqb@comsenz.com,1685984087
China,Browsecat,true,15,97161 Orin Trail,11th Floor,Daying,,ldassindaleqc@hubpages.com,8879846201
China,Quimba,false,15,0832 Hanover Center,Suite 94,Handegate,,oellinqd@narod.ru,5496300623
United States,Bubbletube,true,15,62872 Ohio Pass,Suite 83,New York City,10039,cmacgiollapheadairqe@harvard.edu,2121195372
Yemen,Muxo,true,15,8 Dwight Way,8th Floor,Ar Rawḑ,,rharbertqf@google.cn,2874827290
Uzbekistan,Livefish,false,15,1 Quincy Way,Room 1678,Koson,,radrienqg@woothemes.com,9241670699
Canada,Oyoloo,true,15,08 Harper Center,17th Floor,Altona,K1W,dparkeqh@census.gov,2204969735
Russia,Yotz,true,15,1 Talmadge Drive,Room 703,Uchaly,453703,cmoquinqi@godaddy.com,6027630463
Italy,Viva,true,15,7 Saint Paul Park,Room 613,Salerno,84135,csalamonqj@google.co.uk,1934552128
China,Thoughtmix,false,15,4503 Melody Place,Suite 18,Jiangduo,,enajeraqk@cbslocal.com,4572316999
Indonesia,Vipe,true,15,1 Hoard Lane,Suite 74,Magersari,,cproverql@princeton.edu,6028816260
Greece,Voomm,false,15,9 Farwell Place,6th Floor,Krousón,,twulfingerqm@amazon.de,3137714929
Finland,Skimia,false,15,647 Blue Bill Park Crossing,Apt 1938,Iniö,23390,crotlaufqn@webmd.com,3516171913
Russia,Photofeed,false,15,50754 Oriole Place,PO Box 97611,Kharlu,186806,bgorrissenqo@samsung.com,2689316371
Jamaica,Fanoodle,true,15,05039 Park Meadow Drive,PO Box 64700,Ocho Rios,,wfandreyqp@printfriendly.com,2779445507
Philippines,Twitterbridge,false,15,1 Huxley Lane,Room 1363,Bugang,9803,rratchfordqq@quantcast.com,2404383979
Honduras,Eire,false,15,39 Mallory Place,Room 846,Nacaome,,gkirsopqr@ftc.gov,5053518290
Papua New Guinea,Youbridge,false,15,205 Fair Oaks Trail,Apt 613,Ambunti,,vstobbsqs@huffingtonpost.com,2536206750
Indonesia,Ozu,true,15,46 Dahle Street,15th Floor,Wolomarang,,elunbechqt@jugem.jp,3782426243
Philippines,Shufflebeat,false,15,591 Lukken Alley,PO Box 71154,Unidad,8308,tledsonqu@wunderground.com,2893666239
Guatemala,Realcube,true,15,2 Monica Way,Room 6,Jalpatagua,22012,dbealsqv@myspace.com,4207486113
United States,Photojam,false,15,62772 Delladonna Road,Room 1724,Washington,20470,nschoalesqw@geocities.com,2029860777
Indonesia,Aimbo,true,15,1 Nova Terrace,Room 1792,Noebesa,,oboristonqx@go.com,5221246831
Philippines,Skiptube,true,15,60332 Park Meadow Lane,Room 957,Sampaloc,4329,wstockwellqy@scribd.com,8074098920
Sweden,Jaxworks,false,15,30010 Lake View Way,Room 1554,Göteborg,414 66,gmanklowqz@youku.com,2717998446
China,Ainyx,false,15,90 Gateway Alley,PO Box 89284,Xuebu,,croutleyr0@walmart.com,2485788702
China,Brainsphere,true,15,8394 Commercial Alley,Room 1681,Wuli,,cgonningr1@walmart.com,7279218533
China,Chatterbridge,false,15,49195 Kennedy Road,5th Floor,Shuangshan,,wdurier2@freewebs.com,8871539144
China,Skalith,false,15,75 Center Plaza,Apt 255,Baihe,,nkelwayr3@dmoz.org,7505999774
Philippines,Voonder,false,15,35380 Roxbury Alley,18th Floor,San Jose,8427,jwillicottr4@go.com,9631292755
Japan,Yacero,false,15,6 Larry Road,Suite 72,Ageoshimo,362-0025,gharbardr5@oakley.com,8377905219
Russia,Quaxo,true,15,5319 Pond Plaza,Suite 33,Ryazan’,390507,jkryzhovr6@nhs.uk,7674609517
Indonesia,Browsecat,true,15,9 Pennsylvania Drive,Apt 887,Sukamaju,,jcormoder7@latimes.com,9872718027
Japan,Meemm,true,15,0 Morning Drive,Suite 76,Ōami,299-4128,brenahanr8@forbes.com,6086594297
Philippines,Quaxo,true,15,47155 Larry Plaza,Apt 10,Vito,1659,ldykinsr9@intel.com,5211404755
China,Topicshots,true,15,27590 Heffernan Street,PO Box 78605,Daji,,dtunnora@t-online.de,2282327795
United States,Reallinks,false,15,91171 Victoria Trail,3rd Floor,Shawnee Mission,66276,hwoolagerrb@accuweather.com,9131776996
Philippines,Ntag,false,15,1 Sachtjen Way,6th Floor,Bail,5420,fdeveroserc@nih.gov,4834002406
Colombia,Riffpath,false,15,85 Beilfuss Crossing,Apt 1173,Ríohacha,440017,sschustrd@ted.com,9701892876
Ukraine,Chatterbridge,false,15,59151 Fordem Plaza,Room 616,Kobelyaky,,icheasmanre@yale.edu,5598964333
Uzbekistan,Brainlounge,true,15,109 Union Center,Apt 1388,Yangiyŭl,,spropperrf@redcross.org,3389488421
Portugal,Oyoyo,true,15,836 Ramsey Hill,Apt 1423,Cabeço,3800-525,varensrg@cnn.com,2837352933
China,Twitterwire,false,15,2 2nd Court,11th Floor,Jianchang,,cpinarerh@google.ru,5511196941
Indonesia,Youfeed,false,15,5 David Circle,Room 545,Krenggan,,svaheyri@tmall.com,2345653967
Egypt,Dynazzy,false,15,89271 Almo Avenue,Suite 33,Bi’r al ‘Abd,,molifauntrj@yelp.com,3494713285
Brazil,Quire,false,15,1888 Clyde Gallagher Trail,PO Box 51829,Iranduba,69405-000,hwalkdenrk@globo.com,1822738341
Russia,Centidel,false,15,92 Artisan Place,Room 932,Mundybash,652900,ttresiserl@friendfeed.com,7535686140
Brazil,Edgewire,true,15,5089 Weeping Birch Pass,Suite 9,Caçapava do Sul,96570-000,sfilipovicrm@ucla.edu,1071326545
Philippines,Nlounge,false,15,2231 Hanover Road,Apt 70,Marbel,9406,ebednellrn@hugedomains.com,4735590988
China,Lazzy,true,15,92 Hansons Terrace,PO Box 98421,Wulongshan,,dbramro@mac.com,5945477801
Ghana,Linktype,true,15,5 Mayfield Plaza,Room 1497,Savelugu,,ikealrp@home.pl,4929673068
Saint Pierre and Miquelon,Skyndu,false,15,2838 Ohio Way,12th Floor,Saint-Pierre,97500,jbasilirq@delicious.com,6489117871
China,Dazzlesphere,false,15,5564 Tennyson Place,Apt 454,Guicheng,,gayllettrr@people.com.cn,9907708741
